,Unnamed: 0,name,address,6,7,8,9,10,11,12,13,14,15,16,17,18,19,20,21,22,23,5,4,latitude,longitude
0,0,SmartFit 509 Sul,"""Asa Sul 509B 45/55 - Asa Sul""",87.0,69,74,76,80,79,67,49,45,53,57,67,80.0,57.0,48.0,33.0,7.0,0.0,,,-15.8114166,-47.8945011
1,1,SmartFit 515 Norte,"""Quadra SEPN 515 Bloco E - Asa Norte""",85.0,74,87,81,88,88,78,47,50,58,62,71,84.0,70.0,55.0,34.0,8.0,0.0,,,-15.753456,-47.8941562
2,2,SmartFit Abílio Távora,"""Avenida Abílio Augusto Távora, Nº 292 - Centro""",31.0,39,45,49,46,47,38,28,31,40,39,42,56.0,48.0,45.0,27.0,6.0,1.0,,,-22.7611129,-43.457223
3,3,SmartFit Abolição,"""Rua da Abolição, 2013 - Ponte Preta""",49.0,39,42,45,50,46,43,32,32,44,38,48,58.0,53.0,39.0,28.0,3.0,1.0,,,-22.9263404,-47.0397549
4,4,SmartFit Aclimação,"""Av. da Aclimação, 350 - Cambuci""",69.0,57,74,60,71,80,75,51,48,58,51,54,60.0,62.0,52.0,46.0,12.0,1.0,,,-23.5698613,-46.6328635
5,5,SmartFit Aflitos,"""Avenida Conselheiro Rosa e Silva, 1832 - Aflitos""",54.0,66,70,68,75,77,68,45,44,56,62,69,73.0,65.0,53.0,41.0,13.0,1.0,43.0,,-8.0360515,-34.9017206
6,6,SmartFit Agronômica,"""Avenida Governador Irineu Bornhausen, 5288 - Agronômica""",58.0,44,50,65,64,62,56,43,41,43,52,51,56.0,56.0,44.0,35.0,7.0,0.0,,,-27.5752647,-48.5272417
7,7,SmartFit Água Branca,"""Av. Francisco Matarazzo, 2000 - Água Branca""",85.0,65,70,66,73,80,81,56,51,55,58,70,89.0,70.0,56.0,39.0,10.0,1.0,,,-23.5251409,-46.68190560000001
8,8,SmartFit Água Fria,"""Av. Água Fria, 772 x Rua Altinópolis, 699 - Santana""",52.0,39,44,39,42,46,48,34,28,35,36,41,45.0,45.0,36.0,30.0,8.0,0.0,,,-23.4818962,-46.6217262
9,9,SmartFit Água Verde,"""Avenida República Argentina,900 - Água Verde""",52.0,35,43,46,56,58,56,37,39,46,42,45,55.0,49.0,37.0,22.0,4.0,0.0,,,-25.4541246,-49.2886584
10,10,SmartFit Águas Claras I,"""Rua das Pitangueiras, Lote 01 - Águas Claras""",38.0,40,41,45,42,42,37,25,22,29,27,34,36.0,34.0,31.0,22.0,6.0,1.0,,,-15.8350969,-48.0171115
11,11,SmartFit Águas Claras II,"""Rua 13 Norte, Lote 1 e 3, Loja 110 - Águas Claras""",65.0,61,73,74,80,73,62,40,46,53,55,62,69.0,70.0,55.0,39.0,6.0,0.0,,,-15.8367667,-48.0192754
12,12,SmartFit Águas Claras III,"""Rua 30 Sul, Lote 07 - Águas Claras""",54.0,45,51,58,61,57,42,28,28,38,38,38,37.0,39.0,35.0,26.0,5.0,1.0,,,-15.8398604,-48.0355028
13,13,SmartFit Águas Claras IV,"""Rua 36, Lote 07 - Águas Claras""",66.0,62,75,73,73,68,58,35,38,47,49,55,66.0,65.0,53.0,41.0,8.0,1.0,,,-15.834231,-48.0372869
14,14,SmartFit Alameda Santos,"""Alameda Santos, 1347  - Cerqueira César""",73.0,52,52,48,56,66,72,46,38,50,57,66,78.0,55.0,44.0,32.0,8.0,1.0,,,-23.5642406,-46.6553474
15,15,SmartFit Alfonso Bovero,"""Av. Alfonso Bovero, 1060 - Vila Pompeia""",60.0,46,57,51,59,57,56,40,34,41,40,46,50.0,47.0,34.0,25.0,5.0,0.0,,,-23.5369212,-46.6849764
16,16,SmartFit Alfredo Backer ,"""Rua Doutor Alfredo Backer, 500 - Alcantara""",69.0,61,77,67,68,61,50,53,50,49,47,62,74.0,63.0,50.0,47.0,7.0,1.0,,,-22.81853,-43.00723
17,17,SmartFit Allways Mall,"""Avenida das Américas, n 7380 - Barra da Tijuca""",56.0,58,70,66,69,67,56,41,35,41,46,47,48.0,50.0,38.0,24.0,6.0,1.0,,,-22.9992855,-43.40551300000001
18,18,SmartFit Alphaville I,"""Alameda Araguaia, 762 - Alphaville Industrial""",57.0,33,30,29,30,33,38,26,25,31,33,50,59.0,47.0,36.0,26.0,6.0,0.0,,,-23.4992192,-46.8537088
19,19,SmartFit Alphaville II,"""Alameda Araguaia, nº1801 -2º Pavimento do Estacionamento Sodimac - Alphaville Industrial """,100.0,51,53,47,50,55,58,41,48,44,47,67,94.0,56.0,59.0,44.0,9.0,1.0,,,-23.4996348,-46.843645
20,20,SmartFit Alto de S√£o Manoel,"""Avenida Presidente Dutra - Alto de S√£o Manoel, 2220""",43.0,47,32,64,67,64,60,57,55,72,79,74,86.0,79.0,60.0,37.0,10.0,1.0,61.0,,-5.2134469,-37.3317824
21,21,SmartFit Amazonas Shopping,"""Av. Djalma Batista, 482 - Nossa Senhora das Graças""",27.0,45,39,45,48,58,62,48,39,50,53,57,68.0,70.0,56.0,43.0,35.0,,,,-3.0941363,-60.02269459999999
22,22,SmartFit Americana,"""Avenida Brasil, 1955 - Jardim S√£o Paulo""",32.0,32,35,31,35,30,27,15,17,25,27,45,45.0,32.0,22.0,14.0,4.0,1.0,15.0,,-23.5720281,-46.6692982
23,23,SmartFit Ana Costa 1,"""Av. Ana Costa, 554 - Gonzaga""",49.0,50,69,58,69,69,60,37,39,46,46,49,66.0,59.0,45.0,28.0,8.0,0.0,,,-23.9687633,-46.3333358
24,24,SmartFit Ana Costa II,"""Av. Ana Costa, 272 - Gonzaga""",82.0,58,82,69,79,83,77,53,54,59,56,75,86.0,75.0,59.0,42.0,10.0,1.0,,,-23.9557766,-46.3317101
25,25,SmartFit An√°lia Franco,"""Rua Antônio Alves Barril, 323 - Jardim Anália Franco""",54.0,50,49,42,56,57,51,35,33,37,42,50,62.0,54.0,41.0,31.0,6.0,1.0,,,-23.5593568,-46.5615312
26,26,SmartFit An√°polis,"""Avenida Brasil Norte, 1080 - Cidade Jardim""",41.0,37,44,44,49,46,34,24,26,30,37,46,50.0,45.0,36.0,23.0,4.0,1.0,32.0,,-16.3195702,-48.9458697
27,27,SmartFit Anchieta,"""Avenida Francisco Deslandes, 900 - Anchieta""",54.0,46,56,53,67,59,48,30,34,39,42,48,54.0,46.0,34.0,23.0,6.0,1.0,,,-19.9516996,-43.927955
29,29,SmartFit Anita Mall,"""Rua Anita Garibaldi, 600 - Mont Serrat""",59.0,45,54,63,70,64,55,31,34,47,50,50,60.0,54.0,36.0,26.0,6.0,1.0,,,-30.0266083,-51.1896284
30,30,SmartFit Antônio Bento,"""Rua Dr. Antonio Bento, n 587 - Santo Amaro""",53.0,44,43,34,45,46,46,32,30,38,44,45,55.0,38.0,33.0,24.0,7.0,1.0,,,-23.6455168,-46.7027543
31,31,SmartFit Aquarius,"""Av. Comendador Vicente de Paulo Penido, 251 - Parque Res. Aquarius""",66.0,86,86,84,87,79,64,50,49,62,60,81,90.0,74.0,60.0,39.0,8.0,0.0,29.0,,-23.2149444,-45.9021492
32,32,SmartFit Araçatuba,"""Av. Joaquim Pompeu de Toledo, 601 - Vila Est√°dio""",68.0,69,56,59,70,70,64,48,51,61,61,69,81.0,76.0,54.0,37.0,8.0,1.0,,,-21.2220969,-50.4354996
33,33,SmartFit Araras,"""Av. Dona Renata, 2954 - Vila Michelin""",56.0,46,50,50,51,50,40,31,37,43,44,57,62.0,44.0,37.0,22.0,4.0,1.0,,,-22.3593091,-47.3928742
34,34,SmartFit Aricanduva,"""Avenida Aricanduva, 5555 - Jd. Santa Terezinha""",83.0,69,74,73,76,83,82,58,57,59,56,63,95.0,92.0,78.0,57.0,10.0,0.0,,,-23.5617447,-46.5036281
35,35,SmartFit Arniqueiras,"""SHA Conjunto 4 Chácara 71-A, Lote 71-B - Setor Habitacional Arniqueira (Águas Claras)""",0.0,0,0,0,0,0,1,0,0,0,0,0,0.0,0.0,0.0,0.0,0.0,0.0,,,-15.8471286,-48.0092356
36,36,SmartFit Asa Norte I,"""SHCN EQ 406/407 bloco A  - Asa Norte""",121.0,104,126,114,128,129,138,72,77,82,98,105,120.0,98.0,70.0,55.0,13.0,1.0,,,-15.7638993,-47.8877531
37,37,SmartFit Asa Norte II,"""SHCGN CR 712/713, Bloco D, loja 24 - Asa Norte""",54.0,54,47,52,57,60,50,39,33,40,47,46,52.0,46.0,39.0,29.0,10.0,0.0,,,-15.7613108,-47.8933863
38,38,SmartFit Asa Norte IV,"""CLN, 305 Bloco A - Asa Norte""",71.0,77,85,87,85,85,72,45,47,60,56,63,77.0,65.0,42.0,29.0,6.0,0.0,,,-15.7742675,-47.8855045
39,39,SmartFit Asa Sul I,"""EQS 414/415 - Asa Sul""",82.0,61,68,71,79,75,69,51,44,52,61,62,74.0,54.0,40.0,27.0,7.0,0.0,,,-15.835527,-47.9164101
40,40,SmartFit Asa Sul II,"""Q 511 Sul - Asa Sul""",60.0,49,56,58,62,59,50,35,32,41,41,46,54.0,42.0,36.0,24.0,7.0,1.0,,,-15.8114166,-47.8945011
41,41,SmartFit Asa Sul III,"""QD. 702 SHCS Conjunto A - Asa Sul""",71.0,79,69,69,78,94,78,44,46,53,57,79,78.0,58.0,44.0,31.0,8.0,1.0,,,-15.8202434,-47.9045093
42,42,SmartFit Assaí Anchieta,"""R. García Lorca, 301 - Pauliceia""",47.0,31,36,37,36,35,34,23,27,29,31,39,41.0,43.0,39.0,24.0,4.0,1.0,,,-23.5894498,-46.7338207
43,43,SmartFit Atibaia,"""Avenida Joviano Alvim, 300 - Alvinópolis""",39.0,34,34,31,36,26,25,25,21,27,26,33,38.0,28.0,27.0,18.0,5.0,1.0,,,-23.1176043,-46.5604683
44,44,SmartFit Atl√¢ntica,"""Av. In√°cio Cunha Leme, 20 - Jardim Ipanema""",66.0,67,70,64,74,67,68,46,43,49,59,61,70.0,67.0,60.0,40.0,10.0,0.0,,,-23.6905357,-46.7131785
45,45,SmartFit Augusta,"""Rua Augusta, 1585 - Consolação""",52.0,39,31,31,37,39,47,31,30,35,37,58,61.0,44.0,39.0,23.0,6.0,1.0,,,-23.5574148,-46.6590596
46,46,SmartFit Aurora Shopping,"""Av. Ayrton Senna da Silva, 400 - Gleba Fazenda Palhano""",85.0,71,74,71,76,73,68,50,53,64,62,77,101.0,81.0,49.0,35.0,7.0,1.0,,,-23.3290717,-51.1778634
47,47,SmartFit Av. 31 de Março,"""Avenida Trinta e Um de Março, 1533 - Paulicéia""",27.0,29,39,32,39,38,31,24,21,24,31,47,42.0,42.0,33.0,26.0,4.0,1.0,40.0,,-23.6650747,-46.5863158
48,48,SmartFit Av. Br√°s de Pina ,"""Avenida Brás de Pina, nº 201 - Penha""",72.0,57,74,62,66,68,56,44,50,59,52,65,75.0,70.0,52.0,12.0,1.0,,,,-22.8418125,-43.2814931
49,49,SmartFit Av. das Cerejeiras,"""Avenida das Cerejeiras, 1156 - Vila Maria""",46.0,40,39,37,44,41,36,32,29,33,36,38,58.0,50.0,39.0,29.0,6.0,1.0,,,-23.5070582,-46.577625
50,50,SmartFit Av. Fernando Costa,"""Av. Fernando Costa x Av. Maria Osório Valle - Alto Ipiranga""",51.0,37,44,34,36,35,34,29,31,31,31,43,51.0,42.0,28.0,22.0,4.0,1.0,,,-23.5352152,-46.2019258
51,51,SmartFit Av. Get√∫lio Vargas I,"""Av. Getúlio Vargas, 25-16 - Vila Aviação""",31.0,37,38,35,41,43,32,22,22,32,40,54,54.0,41.0,30.0,16.0,5.0,1.0,34.0,,-22.3558797,-49.0482194
52,52,SmartFit Av. Get√∫lio Vargas II,"""Av. Getulio Vargas, 8-15 - Jardim Aeroporto""",48.0,35,44,43,46,45,41,26,29,32,36,47,57.0,45.0,40.0,24.0,3.0,1.0,,,-22.3406811,-49.0616804
53,53,SmartFit Av. Guarulhos,"""Av. Guarulhos, 2753 - Ponte Grande""",61.0,35,47,44,46,47,41,31,28,34,37,40,49.0,52.0,42.0,30.0,3.0,1.0,,,-23.4916373,-46.5452965
54,54,SmartFit Av. Ipiranga,"""Avenida Ipiranga, 974 - Rep√∫blica""",47.0,42,38,36,40,38,47,30,29,32,38,59,59.0,35.0,33.0,20.0,5.0,1.0,,,-23.5416472,-46.6391506
55,55,SmartFit Av. Itaberaba I,"""Avenida Itaberaba, 2080 - Itaberaba""",61.0,56,66,57,55,58,55,48,43,42,40,55,65.0,62.0,51.0,32.0,6.0,1.0,,,-23.4846923,-46.6911536
56,56,SmartFit Av. Itaberaba II,"""Av. Itaberaba, nº 1735 - Nossa Senhora do Ó""",55.0,45,49,44,48,48,56,36,40,44,44,42,57.0,55.0,43.0,31.0,5.0,0.0,,,-23.4873878,-46.6929887
57,57,SmartFit Av. Jardim Jap√£o ,"""Avenida Jardim Jap√£o,1458 - Jardim Brasil""",67.0,63,60,57,59,54,58,49,46,52,43,52,67.0,63.0,59.0,41.0,7.0,1.0,,,-23.4781578,-46.583269
58,58,SmartFit Av. Maracan√£ I,"""Rua José Higino - Tijuca""",67.0,68,70,71,81,76,73,49,45,56,55,67,73.0,67.0,52.0,30.0,6.0,1.0,,,-22.929586,-43.2381808
59,59,SmartFit Av. Maracan√£ II,"""Av. Maracan√£, 592 - Maracan√£""",71.0,48,64,60,66,61,60,43,36,45,48,50,57.0,55.0,42.0,32.0,8.0,0.0,,,-22.9147913,-43.2284599
60,60,SmartFit Av. Morumbi,"""Avenida Morumbi, 6340 - Morumbi""",62.0,44,48,43,47,49,48,33,34,34,35,40,45.0,46.0,34.0,24.0,4.0,0.0,,,-23.6175192,-46.7083839
61,61,SmartFit Av. Prestes Maia,"""Avenida Francisco Prestes Maia, 361 - Nova Petrópolis""",68.0,52,60,56,58,50,52,41,36,40,40,54,63.0,51.0,41.0,27.0,6.0,0.0,,,-23.7069378,-46.5473716
62,62,SmartFit Av. Prof. Francisco Morato,"""Av. Professor Francisco Morato, 2203 - Butant√£""",58.0,38,42,44,46,48,45,32,25,32,34,41,59.0,46.0,36.0,28.0,7.0,1.0,,,-23.5854901,-46.72004339999999
63,63,SmartFit Av. Roberto Freire,"""Avenida Engenheiro Roberto Freire, 2020 - Capim Macio""",48.0,62,68,64,72,72,65,49,49,60,60,73,68.0,68.0,55.0,44.0,13.0,4.0,46.0,,-5.8577262,-35.197116
64,64,SmartFit Av. Santa Catarina I,"""Av. Santa Catarina, 935  - Vila Mascote""",49.0,42,45,45,53,53,56,36,33,37,36,38,52.0,49.0,42.0,27.0,8.0,1.0,,,-23.643858,-46.6650048
65,65,SmartFit Av. Santa Catarina II,"""Av. Santa Catarina, 2566 - Vila Mascote""",64.0,63,63,56,60,57,57,45,44,43,45,53,56.0,66.0,51.0,32.0,7.0,1.0,,,-23.656144,-46.6556736
66,66,SmartFit Av. Trinta e Seis,"""Avenida Padre Francisco Salles Culturato, 924 - Centro""",46.0,44,49,48,56,54,43,35,37,44,45,58,69.0,56.0,42.0,25.0,6.0,1.0,,,-21.781122,-48.1880326
67,67,SmartFit Av. Vereador Narciso,"""Av. Vereador Narciso Yague Guimarães, nº 1000 - Centro Civico""",48.0,44,52,46,49,61,45,35,38,44,54,61,66.0,52.0,41.0,32.0,8.0,0.0,,,-23.5179252,-46.1799468
68,68,SmartFit Avaré,"""Av. Pref. Paulo Novais, 5 - Centro""",52.0,38,43,37,44,45,29,25,26,29,41,53,59.0,45.0,34.0,22.0,5.0,0.0,,,-23.09541,-48.9400427
69,69,SmartFit Avenida Amador Bueno,"""Avenida Amador Bueno da Veiga, 1066 - Penha""",70.0,59,62,70,73,71,74,54,47,55,52,62,76.0,77.0,59.0,49.0,12.0,1.0,,,-23.5237948,-46.5344477
70,70,SmartFit Avenida Angélica,"""Avenida Angélica, 2424 - Consolação""",68.0,56,54,52,61,66,62,48,38,45,47,69,75.0,54.0,41.0,28.0,7.0,1.0,,,-23.5531634,-46.6620033
71,71,SmartFit Avenida Castelo Branco,"""Avenida Humberto de Alencar Castelo Branco, 3120 - Jardim do Imperador""",66.0,44,64,52,54,51,52,44,46,47,45,58,69.0,58.0,48.0,34.0,7.0,1.0,,,-23.7167923,-46.5844874
72,72,SmartFit Avenida Celso Garcia,"""Av. Celso Garcia, 4886 - Tatuapé""",75.0,54,72,61,67,79,70,54,45,51,58,76,74.0,62.0,53.0,42.0,11.0,0.0,,,-23.5337758,-46.56543
73,73,SmartFit Avenida dos Mananciais,"""Avenida dos Mananciais, 721 - Taquara""",65.0,58,72,73,73,67,55,48,42,55,51,56,67.0,59.0,46.0,37.0,9.0,1.0,,,-22.9172306,-43.384987
74,74,SmartFit Avenida JK,"""Av. Presidente Juscelino Kubitschek de Oliveira, 400 - Jardim Maracan√£""",83.0,71,72,73,86,87,67,51,46,62,66,84,97.0,72.0,60.0,44.0,10.0,1.0,,,-23.0858796,-52.4709411
75,75,SmartFit Avenida Jorge Amado,"""Avenida Jorge Amado, 1834 - Imbuí""",55.0,69,78,67,77,69,57,42,51,61,61,70,68.0,62.0,50.0,31.0,2.0,,56.0,,-12.9689388,-38.423238
76,76,SmartFit Avenida Mascote,"""Av. Mascote, 159 - Vila Mascote""",85.0,68,78,65,71,76,70,56,49,55,51,59,72.0,70.0,61.0,37.0,10.0,1.0,,,-23.648476,-46.6637419
77,77,SmartFit Avenida Presidente Wilson,"""Avenida Presidente Wilson, 1333 - Itararé""",79.0,73,83,79,82,82,75,58,55,60,55,69,85.0,78.0,62.0,43.0,10.0,0.0,,,-24.1099321,-49.3306862
78,78,SmartFit Avenida Prudente de Morais,"""Avenida Prudente de Morais, 513 - Santo Antônio""",61.0,50,48,47,56,57,51,26,29,35,42,54,57.0,50.0,37.0,25.0,5.0,0.0,,,-23.27743,-47.29020999999999
79,79,SmartFit Avenida Rio Branco,"""Avenida Bar√£o do Rio Branco,1658 - Centro""",92.0,63,72,75,87,89,82,61,65,68,72,93,109.0,76.0,49.0,11.0,1.0,,,,-22.4905363,-43.1771448
80,80,SmartFit Avenida Sete de Setembro,"""Avenida Sete de Setembro,6517 - Batel""",48.0,35,34,38,39,39,40,26,27,30,29,40,45.0,39.0,27.0,18.0,3.0,0.0,,,-25.4507071,-49.3002208
81,81,SmartFit Avenida Tabo√£o,"""Rua Eugênia Sá Vitale, 111 - Taboão""",58.0,51,56,45,51,54,54,45,41,46,40,50,67.0,56.0,51.0,36.0,6.0,1.0,,,-23.6237092,-46.7795774
82,82,SmartFit Avenida Wenceslau Escobar,"""Avenida Wenceslau Escobar, 1040 - Cristal""",55.0,43,55,52,63,59,47,38,37,46,48,50,60.0,54.0,39.0,25.0,5.0,1.0,,,-30.09949779999999,-51.2479242
83,83,SmartFit Aventureiro,"""Rua Tuiuti, 2295 - Aventureiro""",61.0,39,52,44,40,42,34,33,33,33,34,44,61.0,62.0,52.0,33.0,6.0,0.0,,,-26.2524611,-48.8197302
84,84,SmartFit Bacacheri,"""Avenida Monteiro Tourinho, 54 - Bacacheri""",70.0,50,68,66,70,71,58,47,46,54,56,62,77.0,69.0,58.0,45.0,7.0,0.0,,,-25.3905361,-49.2232711
85,85,SmartFit Baixo Augusta,"""Rua Augusta, 1053 - Consolação""",45.0,39,49,46,51,59,60,42,36,37,39,48,59.0,50.0,44.0,34.0,12.0,0.0,,,-23.5538468,-46.6555356
86,86,SmartFit Balne√°rio Cambori√∫,"""3ª Avenida (esquina com a R. 3.122) - Centro""",38.0,35,46,49,53,51,46,36,39,45,45,47,55.0,52.0,40.0,33.0,5.0,0.0,,,-33.5115049,-70.73045429999999
87,87,SmartFit Bambina,"""Rua Bambina, 146 - Botafogo""",87.0,65,79,80,83,89,81,57,56,63,67,65,77.0,64.0,58.0,39.0,12.0,0.0,,,-22.9479808,-43.1862747
88,88,SmartFit Bangu Shopping,"""Rua Fonseca, 240 - Bangu""",59.0,67,106,88,89,85,76,66,63,74,68,81,90.0,84.0,64.0,48.0,10.0,1.0,,,-22.8779402,-43.4671382
89,89,SmartFit Bar√£o da Torre,"""R. Bar√£o da Torre, 398  - Ipanema""",111.0,96,113,110,108,106,107,78,61,68,69,80,88.0,75.0,57.0,38.0,10.0,1.0,,,-22.984667,-43.1985932
90,90,SmartFit Bar√£o de Mau√°,"""Avenida Bar√£o de Mau√°, 3748 - Jardim Maring√°""",42.0,34,37,35,39,34,38,30,28,30,31,35,54.0,44.0,33.0,23.0,3.0,0.0,,,-23.6648846,-46.4322729
91,91,SmartFit Bar√£o Geraldo,"""Avenida Santa Isabel, 1030 - Vila Santa Isabel""",41.0,49,52,58,67,63,61,50,39,50,52,51,59.0,60.0,49.0,42.0,24.0,1.0,,,-23.557471,-46.5383418
92,92,SmartFit Barata Ribeiro,"""Rua Barata Ribeiro, 502, Loja A - Copacabana""",35.0,30,38,34,40,40,38,31,25,29,30,29,34.0,29.0,26.0,21.0,7.0,0.0,,,-22.9699126,-43.1880145
93,93,SmartFit Barbosa de Freitas,"""Av. Santos Dumont, 3060 (loja 12 a 20) - Aldeota""",55.0,39,33,31,33,38,50,24,23,30,34,53,61.0,40.0,24.0,13.0,3.0,1.0,,,-3.7370476,-38.4977215
94,94,SmartFit Barra Funda,"""Avenida Doutor Adolpho Pinto, 56 - Barra Funda""",60.0,43,41,40,44,50,47,30,26,36,43,53,70.0,40.0,39.0,31.0,6.0,0.0,,,-23.5301565,-46.6660188
95,95,SmartFit Barra Garden,"""Av. das Américas, 3255, Loja 217 e 218 - Barra da Tijuca""",60.0,53,57,48,56,54,52,33,31,38,38,48,65.0,47.0,32.0,20.0,4.0,1.0,,,-23.001079,-43.3418563
96,96,SmartFit Barra Mansa,"""Avenida Joaquim Leite, 640 - Centro""",57.0,57,57,51,63,60,49,39,43,45,41,56,66.0,52.0,37.0,9.0,1.0,,,,-22.5446146,-44.1737096
97,97,SmartFit Barreiro,"""Avenida Afonso Vaz de Melo, 640 - Barreiro""",56.0,43,54,44,55,51,38,29,31,39,42,66,80.0,66.0,49.0,33.0,6.0,1.0,,,-19.9749688,-44.0200643
98,98,SmartFit Barretos,"""Via Conselheiro Antonio Prado, 1400 - Aeroporto""",36.0,32,31,34,38,38,27,24,25,33,38,47,51.0,49.0,37.0,23.0,5.0,0.0,,,-20.5738916,-48.5584224
99,99,SmartFit  Bartolomeu Mitre ,"""Av. Bartolomeu Mitre, 455 - Leblon""",92.0,81,95,99,104,101,97,68,60,63,63,71,77.0,69.0,53.0,39.0,11.0,0.0,,,-22.982842,-43.2237989
100,100,SmartFit Barueri Centro ,"""Avenida Vinte e Seis de Março, 701 - Centro""",97.0,78,77,70,76,83,90,70,64,65,68,92,99.0,94.0,73.0,61.0,12.0,1.0,,,-23.5110926,-46.8822067
101,101,SmartFit Batel,"""Av. Silva Jardim, 2522 - Batel""",62.0,44,52,50,54,63,64,34,38,47,45,59,70.0,54.0,37.0,24.0,5.0,1.0,,,-25.4458965,-49.2847965
102,102,SmartFit Beira Mar Norte,"""Rua Jorn. Rubens de Arruda Ramos, 1280 - Centro""",94.0,84,92,103,104,95,81,60,62,70,86,84,101.0,86.0,63.0,49.0,12.0,1.0,,,-27.5884768,-48.5571523
103,103,SmartFit Bela Vista,"""Rua Pedroso, 407 - Bela Vista""",51.0,42,39,40,42,56,50,38,35,36,39,47,56.0,47.0,43.0,32.0,8.0,1.0,,,-23.5623819,-46.6426649
104,104,SmartFit Belenzinho,"""Rua Cajuru, 1101 - Belenzinho""",39.0,35,34,35,37,38,44,31,32,35,34,40,45.0,46.0,37.0,23.0,7.0,0.0,,,-23.5398448,-46.5939032
105,105,SmartFit Belford Roxo,"""Avenida Benjamin Pinto Dias, 1130 - Vila Dagmar""",50.0,62,69,65,71,61,45,47,47,53,48,64,75.0,66.0,42.0,9.0,0.0,,,,-22.7654655,-43.39981119999999
106,106,SmartFit Belmira Marin,"""Avenida Dona Belmira Marin, 2064 - Parque Brasil""",18.0,17,21,18,20,19,19,17,13,16,17,17,21.0,19.0,15.0,10.0,2.0,1.0,,,-23.7472543,-46.6879609
107,107,SmartFit Bem-te-vi,"""Avenida Bem-Te-Vi, 86 - Indianópolis""",89.0,83,82,69,77,78,80,45,39,50,49,65,88.0,74.0,55.0,33.0,6.0,0.0,,,-23.606829,-46.6699064
108,108,SmartFit Bernardino de Campos,"""Av. Bernardino de Campos, 358 - Paraíso""",41.0,31,25,27,31,37,39,22,20,26,32,38,46.0,32.0,25.0,17.0,4.0,0.0,,,-23.5746866,-46.6422919
109,109,SmartFit Berrini,"""Praça General Gentil Falcão, 96 - Itaim Bibi""",91.0,52,38,34,37,40,55,25,23,33,34,55,76.0,53.0,36.0,27.0,6.0,0.0,,,-23.6048291,-46.6936621
110,110,SmartFit Betim Shopping,"""Avenida Edméia Mattos Lazzarotti, 1655 - Angola""",75.0,55,69,63,63,62,54,41,43,49,54,74,78.0,67.0,52.0,39.0,8.0,1.0,,,-11.202692,17.873887
111,111,SmartFit BH Shopping,"""BR-356, 3049 - Belvedere""",57.0,44,50,45,57,62,56,40,35,42,48,55,72.0,55.0,42.0,23.0,5.0,1.0,,,-19.9742624,-43.9445729
112,112,SmartFit Blumenau,"""Via Expressa Paul Fritz Kuehnrich, 1600 - Itoupava Norte""",54.0,30,37,44,45,46,50,27,30,36,44,52,62.0,53.0,38.0,33.0,5.0,0.0,,,-26.886531,-49.0687685
113,113,SmartFit Boa Vista,"""Avenida Conde da Boa Vista Nº 770 - Loja 3 - Boa Vista""",0.0,0,0,0,0,0,0,0,0,0,0,0,0.0,0.0,0.0,0.0,0.0,0.0,,,-8.058312899999999,-34.8875036
114,114,SmartFit Bom Retiro,"""Rua dos Italianos, 260 - Bom Retiro""",64.0,45,45,39,43,47,53,37,38,45,42,74,59.0,45.0,45.0,29.0,7.0,1.0,,,-23.5273214,-46.6420627
115,115,SmartFit Bonfiglioli,"""Av. Eng. Heitor Antônio Eiras Garcia,616 - Jardim Bonfiglioli""",77.0,50,59,61,68,69,68,50,47,53,52,59,62.0,60.0,55.0,40.0,8.0,0.0,,,-23.5759261,-46.7420716
116,116,SmartFit Boqueir√£o,"""Rua Maestro Carlos Frank, 1869 - Alto Boqueir√£o""",65.0,46,61,56,58,52,50,40,41,45,39,44,64.0,63.0,45.0,33.0,7.0,0.0,,,-25.5206009,-49.23574499999999
117,117,SmartFit Borba Gato,"""Rua Bela Vista, 360 - Santo Amaro""",56.0,45,42,38,42,49,47,29,29,35,41,51,59.0,43.0,32.0,27.0,7.0,1.0,,,-23.6331054,-46.6916236
118,118,SmartFit Bosque Maia,"""Rua Br√°s Cubas, 36 - Jardim Maia""",63.0,47,41,40,52,53,43,33,37,42,43,56,62.0,54.0,36.0,30.0,8.0,1.0,,,-23.4635257,-46.5281448
119,119,SmartFit Boulevard,"""Av. Visc. De Souza Franco, 776 - Reduto""",43.0,44,44,57,63,60,61,47,46,45,49,58,60.0,51.0,41.0,33.0,6.0,1.0,,,-1.4461383,-48.4896874
120,120,SmartFit Boulevard 28,"""Boulevard Vinte e Oito de Setembro, 94 - Vila Isabel""",,83,67,69,71,70,66,43,48,59,68,71,70.0,65.0,53.0,14.0,0.0,,,,-22.9141922,-43.2388155
121,121,SmartFit Boulevard Brasília,"""Setor Terminal Norte, S/N - Asa Norte""",38.0,40,43,45,55,60,52,32,28,32,37,49,53.0,44.0,29.0,22.0,7.0,1.0,,,-15.7359,-47.9077
122,122,SmartFit Bourbon Shopping Assis Brasil,"""Av. Assis Brasil, 164 - S√£o Jo√£o""",46.0,33,42,46,49,50,59,36,34,35,35,48,63.0,52.0,42.0,29.0,10.0,1.0,,,-30.0063911,-51.1843574
123,123,SmartFit Bourbon Wallig,"""Avenida Grécia, 1500 - Passo D'Areia""",46.0,36,50,50,56,54,49,39,32,38,38,48,60.0,54.0,41.0,27.0,7.0,1.0,,,-30.0124254,-51.16050809999999
124,124,SmartFit Bragança Paulista,"""Rua Alpheu Grimello, 650 - Jardim São José""",53.0,41,51,47,58,49,38,24,35,37,43,54,53.0,48.0,35.0,19.0,5.0,1.0,,,-22.9771495,-46.5334892
125,125,SmartFit Brooklin Paulista,"""Rua Califórnia, 590 - Cidade Monções""",95.0,81,80,69,83,85,80,50,45,49,57,60,78.0,67.0,62.0,38.0,10.0,1.0,,,-23.6101194,-46.682928
126,126,SmartFit Brotas,"""Rua Waldemar Falc√£o 323 - Candeal""",69.0,68,89,71,75,72,62,47,51,61,65,78,85.0,71.0,57.0,27.0,1.0,,52.0,,-12.9938471,-38.4852995
127,127,SmartFit Bucarein,"""Rua S√£o Paulo, 910 - Bucarein""",65.0,41,52,52,57,59,59,41,45,41,43,59,75.0,60.0,51.0,34.0,8.0,0.0,,,-26.3158141,-48.8427746
128,128,SmartFit Buriti Shopping,"""Avenida Rio Verde, s/n - Jardim Nova Era""",69.0,50,47,50,52,54,48,31,38,41,41,57,74.0,69.0,52.0,33.0,5.0,1.0,,,-16.7458208,-49.2835078
129,129,SmartFit Buritis,"""Av. Prof. M√°rio Werneck, 1326 - Estoril""",64.0,50,48,46,56,59,48,35,36,46,42,57,60.0,54.0,37.0,27.0,6.0,1.0,,,38.7133152,-9.3936558
130,130,SmartFit Butant√£ Shopping,"""Avenida Professor Francisco Morato, 2718 - Butant√£""",67.0,53,55,54,69,68,66,49,42,49,53,70,93.0,74.0,57.0,45.0,7.0,0.0,,,-23.5846118,-46.7251668
131,131,SmartFit B√∫zios,"""Avenida José Bento Ribeiro Dantas, 73 - Centro (Mangue)""",20.0,25,28,33,33,35,33,25,23,28,29,28,27.0,19.0,17.0,13.0,4.0,0.0,,,-22.7549602,-41.8869032
132,132,SmartFit Cabral,"""Avenida Paraná, nº1250 - Cabral""",56.0,43,62,58,67,64,56,45,45,51,48,63,62.0,59.0,46.0,33.0,8.0,0.0,,,-25.4026135,-49.2481926
133,133,SmartFit Cabula,"""Rua Silveira Martins, 165 - Cabula""",60.0,70,78,66,77,69,62,49,49,53,57,64,71.0,70.0,51.0,27.0,2.0,,57.0,,-12.9608207,-38.4676602
134,134,SmartFit Cajamar,"""Av. Tenente Marques, nº 7733 - Vila Poupança""",73.0,57,55,45,44,42,43,35,36,35,35,52,57.0,56.0,53.0,36.0,6.0,1.0,,,-23.4074545,-46.8720557
135,135,SmartFit Calçadão Campo Grande,"""Rua Coronel Agostinho, 101 (fundos) - Loja 112 - Campo Grande""",62.0,54,78,66,70,68,60,47,50,55,59,64,80.0,72.0,45.0,35.0,7.0,0.0,,,-22.9044556,-43.5593255
136,136,SmartFit Camaçari,"""Rodovia BA-535 - Polo Petroquímico""",69.0,41,53,51,50,51,45,37,45,51,46,79,61.0,59.0,47.0,35.0,9.0,,2.0,,-12.748953,-38.315278
137,137,SmartFit Cambuci,"""Avenida Lins de Vasconcelos, 803 - Cambuci""",49.0,43,45,37,44,45,45,34,29,35,36,39,48.0,38.0,34.0,27.0,7.0,1.0,,,-23.5703724,-46.6221407
138,138,SmartFit Cambuí II,"""Rua Quatorze de Dezembro, 483 - Centro""",59.0,43,50,46,50,52,45,31,29,40,45,45,62.0,43.0,37.0,27.0,6.0,0.0,,,-22.8978725,-47.0568005
139,139,SmartFit Caminho das Árvores,"""Alameda das Espatódeas, 138 - Caminho das Árvores""",50.0,56,53,48,55,55,49,29,33,38,43,47,53.0,43.0,34.0,20.0,1.0,,43.0,,-12.986078,-38.4572706
140,140,SmartFit Campestre,"""Rua Vitória Régia, nº400 - Campestre""",53.0,48,42,36,39,40,43,28,25,33,35,45,53.0,42.0,36.0,24.0,4.0,0.0,,,-21.7120618,-46.2440779
141,141,SmartFit Campinas Shopping,"""Rua Jacy Teixeira Camargo, 940 - Jardim do Lago""",58.0,45,48,51,56,53,48,41,35,46,50,55,65.0,57.0,48.0,38.0,7.0,1.0,,,-22.930975,-47.0790044
142,142,SmartFit Campo Belo,"""Rua Antônio de Macedo Soares, 1793 - Campo Belo""",50.0,38,36,41,45,46,47,31,27,34,35,37,41.0,39.0,27.0,20.0,5.0,0.0,,,-23.6170002,-46.6704963
143,143,SmartFit Campolim,"""Avenida Antônio Carlos Comitre, 2051 - Parque Campolim""",27.0,27,35,33,34,35,38,34,27,42,36,37,54.0,46.0,35.0,22.0,5.0,0.0,,,-23.5222227,-47.4644013
144,144,SmartFit Campos dos Goytacazes,"""Rua Bar√£o de Miracema, 287 - Centro""",73.0,69,67,65,72,75,58,52,47,59,63,74,84.0,60.0,45.0,11.0,1.0,,,,-21.7600835,-41.3293267
145,145,SmartFit Campos Elíseos,"""Alameda Barão de Limeira, 1011 - Campos Elíseos""",64.0,48,48,51,59,63,60,39,35,39,39,50,56.0,50.0,42.0,28.0,6.0,1.0,,,-23.5331018,-46.6492983
146,146,SmartFit Candel√°ria,"""Rodovia BR-101, S/N - km 2 - Candel√°ria""",66.0,66,86,81,91,90,75,60,65,72,78,85,92.0,78.0,59.0,43.0,9.0,1.0,65.0,,-19.7507108,-40.3799016
147,147,SmartFit Canoas,"""Av. Farroupilha, 4545 - Marechal Rondon""",56.0,52,56,60,69,63,54,41,40,51,54,59,76.0,72.0,54.0,40.0,9.0,1.0,,,-29.9157517,-51.1648462
148,148,SmartFit Cantareira,"""Av. Raimundo Pereira de Magalh√£es, 11.001  - Parada de Taipas""",63.0,49,68,56,60,63,67,52,47,54,47,47,63.0,63.0,52.0,44.0,7.0,1.0,,,-23.4396828,-46.7214213
149,149,SmartFit Cap√£o Redondo,"""Av. Comendador Sant'Anna, 634 - Cap√£o Redondo""",62.0,51,68,62,65,68,67,58,46,56,47,60,77.0,75.0,56.0,43.0,7.0,1.0,,,-23.6723459,-46.77392469999999
150,150,SmartFit Capelinha,"""Estrada de Itapecerica, 3790 - Vila Prel""",74.0,57,71,62,65,66,66,56,50,55,55,58,74.0,73.0,54.0,38.0,7.0,0.0,,,-23.6582396,-46.7657983
151,151,SmartFit Cariacica,"""Avenida Expedito Garcia, 281 - Campo Grande""",69.0,50,60,57,59,54,42,41,37,39,46,65,70.0,54.0,45.0,35.0,7.0,1.0,,,-20.4648517,-54.6218477
152,152,SmartFit Carioca Shopping,"""Avenida Vicente de Carvalho, 909 - Vila da Penha""",91.0,83,116,113,124,111,105,85,79,91,89,98,112.0,115.0,97.0,69.0,18.0,1.0,,,-22.8498693,-43.3114003
153,153,SmartFit Caruaru,"""Rua Adjar da Silva Casé - Indianópolis""",43.0,44,56,63,66,67,63,54,61,62,74,77,77.0,72.0,60.0,49.0,17.0,1.0,46.0,,-8.2922787,-35.9498924
154,154,SmartFit Casa Verde Alta,"""R. Zilda, nº 834 - Casa Verde Alta""",51.0,38,38,32,40,39,37,26,28,32,32,39,48.0,47.0,39.0,23.0,6.0,0.0,,,-23.4924326,-46.6616751
155,155,SmartFit Casa Verde Baixa,"""Rua Bernardino Fanganiello, 349 - Casa Verde""",75.0,54,54,52,61,62,60,47,45,48,54,67,77.0,59.0,58.0,33.0,8.0,0.0,,,-23.5136032,-46.6593694
156,156,SmartFit Cascavel,"""Rua Paran√°, 1677 - Centro""",32.0,30,32,30,37,32,32,29,26,30,31,40,46.0,36.0,27.0,16.0,3.0,0.0,,,-24.9500582,-53.4473138
157,157,SmartFit Cassandoca,"""Av. Cassandoca 939 - Alto da Mooca""",51.0,48,51,43,55,54,50,33,32,42,41,44,67.0,55.0,45.0,30.0,8.0,1.0,,,-23.5551173,-46.589007
158,158,SmartFit Castelo 1,"""Avenida Presidente Tancredo Neves, 2403 - Vila Paquet√°""",63.0,49,53,48,56,50,41,35,32,41,40,44,51.0,54.0,44.0,32.0,8.0,1.0,,,-19.5135784,-42.6114684
159,159,SmartFit Castelo 2,"""Avenida Her√°clito Mour√£o de Miranda, 800 - C√¢ndida Ferreira""",76.0,70,74,68,68,67,51,43,45,53,49,55,74.0,74.0,57.0,43.0,7.0,1.0,,,-25.34294,31.80914
160,160,SmartFit Caxias do Sul,"""Rua Vinte de Setembro, 1788 - Lurdes""",22.0,25,19,19,29,28,19,29,13,20,16,26,27.0,22.0,11.0,6.0,1.0,1.0,,,-29.1648782,-51.1787671
161,161,SmartFit Ceilandia Mall,"""Quadra QNN 31 Área Especial E - Ceilândia Norte""",51.0,41,50,52,49,51,43,31,33,43,44,46,52.0,51.0,48.0,36.0,7.0,1.0,,,-15.8086047,-48.1261573
162,162,SmartFit Ceil√¢ndia Sul,"""QNM 17 Cjs. A, Lotes 39 - Loja 01 - Ceil√¢ndia Sul""",36.0,41,44,46,42,47,37,30,33,36,33,40,49.0,51.0,42.0,30.0,7.0,1.0,,,-15.8162333,-48.0988779
163,163,SmartFit Center Vale,"""Av. Deputado Benedito Matarazzo, 9403 - Jardim Oswaldo Cruz""",63.0,44,50,52,71,67,61,45,52,54,55,71,73.0,61.0,53.0,42.0,11.0,1.0,,,-23.200802,-45.8804556
164,164,SmartFit Centro,"""Rua Sete de Setembro, 709 - Centro""",26.0,20,20,23,27,28,29,19,19,21,26,30,29.0,23.0,24.0,17.0,4.0,,,,-22.9053434,-43.17854
165,165,SmartFit Centro,"""Avenida Amazonas, 303 - Centro""",82.0,41,39,38,44,47,54,38,37,42,44,73,71.0,48.0,35.0,27.0,7.0,1.0,,,-19.9188577,-43.937706
166,166,SmartFit Centro,"""Av. Governador Mario Covas, 282 - Centro""",55.0,30,38,33,36,36,43,29,33,36,36,50,63.0,54.0,37.0,25.0,3.0,1.0,,,-23.519823,-46.83429839999999
167,167,SmartFit Centro,"""Rua Coronel Spinola de Castro, 2865 - Centro""",56.0,38,24,27,27,34,34,20,18,25,30,48,67.0,43.0,26.0,4.0,1.0,,,,-20.8093298,-49.381063
168,168,SmartFit Centro Vila Velha,"""Rua Quinze de Novembro, 1123  - Centro""",70.0,55,57,60,66,65,55,32,31,42,46,65,73.0,58.0,41.0,32.0,7.0,1.0,,,-20.3343801,-40.2917175
169,169,SmartFit Ch√°cara Primavera,"""Rua dos Lírios, 35 - Chácara Primavera""",63.0,59,65,65,63,64,53,44,36,53,56,62,71.0,64.0,47.0,33.0,7.0,1.0,,,-22.8581252,-47.0469088
170,170,SmartFit Champagnat,"""Rua General M√°rio Tourinho, 1805 - Campina do Siqueira""",61.0,43,47,46,55,60,64,35,38,40,43,51,68.0,56.0,41.0,29.0,6.0,1.0,,,-25.4362181,-49.30878380000001
171,171,SmartFit Chapecó,"""Avenida Fernando Machado, 4000 - Líder""",21.0,15,16,17,22,25,26,18,16,16,16,30,42.0,32.0,24.0,13.0,6.0,1.0,,,-27.0931163,-52.6194724
172,172,SmartFit Cidade de Deus,"""Estrada Marechal Miguel Salazar Mendes de Morais, Nº906 - Taquara""",60.0,49,69,66,72,66,54,49,49,53,56,56,73.0,69.0,50.0,13.0,1.0,,,,-22.9418024,-43.3664116
173,173,SmartFit Cidade Nova,"""Rua Ulysses Guimar√£es, s/n - Cidade Nova""",84.0,62,56,48,47,48,53,41,38,43,53,72,81.0,65.0,45.0,10.0,1.0,,,,-22.9125288,-43.2054387
174,174,SmartFit Cidade Tiradentes,"""Avenida Souza Ramos, 104 - Guaianazes""",77.0,85,95,75,71,73,71,63,62,59,57,64,74.0,94.0,73.0,51.0,8.0,1.0,,,-23.5797464,-46.4113955
175,175,SmartFit Cl√°udio Manoel,"""Rua Cl√°udio Manoel, 36 - Funcion√°rios""",56.0,44,42,46,49,53,48,30,28,39,45,52,60.0,47.0,38.0,28.0,7.0,0.0,,,-19.935223,-43.9256643
176,176,SmartFit Clélia I,"""Rua Clélia, 1031 - Vila Romana""",59.0,39,40,38,41,43,48,28,27,29,31,38,51.0,36.0,34.0,27.0,5.0,1.0,,,-23.5253826,-46.692531
177,177,SmartFit Clelia III,"""R. Clélia, 1985 - Lapa""",66.0,42,46,39,47,46,47,34,31,34,41,49,58.0,34.0,40.0,29.0,4.0,1.0,,,-23.524796,-46.7030237
178,178,SmartFit Clodomiro Amazonas II,"""Rua Clodomiro Amazonas, 889 - Vila Nova Conceição""",59.0,55,46,40,50,48,52,33,28,36,34,37,59.0,47.0,38.0,18.0,5.0,0.0,,,-23.592033,-46.6773617
179,179,SmartFit Cocaia,"""Avenida Brigadeiro Faria Lima, nº2002 - Cocaia""",70.0,49,54,46,53,54,50,41,36,44,41,49,65.0,72.0,63.0,47.0,11.0,1.0,,,-23.440593,-46.5221896
180,180,SmartFit Cocó,"""Rua Doutor Gilberto Studart, 155 - Cocó""",35.0,27,26,25,32,34,33,18,20,25,28,41,41.0,28.0,22.0,18.0,4.0,0.0,,,-3.7424091,-38.4867581
181,181,SmartFit Cocot√°,"""Rua Capit√£o Barbosa, 871 - Cocot√°""",55.0,54,61,59,63,58,50,46,40,48,44,46,59.0,48.0,45.0,33.0,6.0,1.0,,,-22.8050714,-43.1822078
182,182,SmartFit Cohama,"""Avenida Daniel de La Touche, 100 - Cohama""",69.0,69,78,76,82,78,77,45,48,63,66,72,91.0,81.0,65.0,50.0,11.0,1.0,,,-2.5105078,-44.2439183
183,183,SmartFit Colombo,"""Rua Durval Ceccon, Nº664 - Jardim Nossa Senhora de Fátima""",48.0,37,44,42,47,48,41,39,39,42,39,48,63.0,59.0,55.0,44.0,7.0,1.0,,,-25.3607166,-49.1868356
184,184,SmartFit Comendador Fragata,"""Rua Comendador Fragata, nº 1052 - """,53.0,44,47,45,56,54,35,31,29,43,49,61,65.0,51.0,40.0,22.0,5.0,0.0,,,-22.2258925,-49.9353683
185,185,SmartFit Conselheiro Aguiar,"""Rua Ernesto de Paula Santos, 187 - Boa Viagem""",60.0,57,84,81,75,74,64,44,39,52,61,65,71.0,58.0,52.0,39.0,12.0,1.0,46.0,,-8.1253326,-34.8990063
186,186,SmartFit Contagem,"""Avenida João César de Oliveira, 1275 - Eldorado""",76.0,57,63,68,73,78,64,52,53,59,58,85,98.0,83.0,59.0,36.0,6.0,1.0,,,-19.9389356,-44.0471663
187,187,SmartFit Coqueiros,"""Rua Jo√£o Roberto Sanford, 41 - Coqueiros""",51.0,54,47,64,59,58,55,35,34,44,49,53,58.0,47.0,40.0,27.0,7.0,0.0,,,-27.6054208,-48.57662819999999
188,188,SmartFit Coração Eucarístico,"""Avenida Dom José Gaspar, 925 - Coração Eucarístico""",62.0,37,46,49,57,52,47,30,38,46,45,58,53.0,50.0,47.0,30.0,6.0,0.0,,,-19.9261186,-43.9927611
189,189,SmartFit Corifeu,"""Av. Corifeu de Azevedo Marques, nº1909 - Butantã""",80.0,61,67,63,69,72,68,47,45,55,57,65,62.0,58.0,47.0,41.0,9.0,1.0,,,-23.5733785,-46.7312116
190,190,SmartFit Costa Azul,"""R. Prof. Lourival Pimenta Bastos, 368 - Costa Azul""",53.0,56,64,63,67,67,54,36,35,47,50,53,66.0,57.0,44.0,25.0,2.0,,45.0,,-12.9950677,-38.4466067
191,191,SmartFit Cotia,"""Av. Nossa senhora de Fatima, 833 - Vila Monte Serrat""",44.0,45,34,38,33,36,35,26,31,27,32,37,47.0,46.0,30.0,20.0,5.0,1.0,,,-23.6082896,-46.9210964
192,192,SmartFit Crici√∫ma,"""Avenida Centen√°rio, 2699 - Centro""",54.0,41,42,51,55,44,51,38,36,45,52,64,61.0,48.0,36.0,31.0,7.0,1.0,,,19.3520222,-99.2471958
193,193,SmartFit Crispim Laranjeira,"""Rua Crispim Laranjeira, 106 - Recreio dos Bandeirantes""",79.0,72,94,83,88,79,75,59,52,59,62,65,80.0,67.0,53.0,37.0,13.0,1.0,,,-23.0130159,-43.4582139
194,194,SmartFit Desembargador Góis Cavalcante,"""Rua Desembargador Góis Cavalcante, 480 - Casa Amarela""",57.0,70,82,80,88,84,74,52,51,64,64,71,72.0,66.0,61.0,41.0,12.0,0.0,48.0,,-8.032834900000001,-34.9105216
195,195,SmartFit Diadema,"""Avenida Nossa Senhora das Vitórias, 188 - Jardim Conceição""",54.0,46,46,46,55,48,51,40,41,45,43,51,59.0,58.0,43.0,27.0,6.0,1.0,,,-23.6883849,-46.6266067
196,196,SmartFit Dias Ferreira,"""Rua Dias Ferreira, 33 - Leblon""",74.0,79,92,84,83,79,73,51,42,45,53,61,68.0,57.0,36.0,24.0,5.0,0.0,,,-22.9855927,-43.2286834
197,197,SmartFit Dionísio Torres,"""Avenida Senador Virgílio Távora, 2201 - Dionisio Torres""",69.0,59,56,53,59,59,64,39,43,49,50,62,70.0,63.0,41.0,27.0,5.0,0.0,,,-3.745610999999999,-38.495747
198,198,SmartFit Divinópolis,"""Rua Goi√°s, 1015 - Centro""",74.0,50,59,58,60,61,46,43,38,48,43,66,77.0,56.0,41.0,37.0,8.0,1.0,,,-20.1447906,-44.89530180000001
199,199,SmartFit Dom Helder,"""Avenida Dom Hélder Câmara, 5229  - Cachambi""",71.0,58,77,71,79,76,67,52,51,57,55,59,72.0,66.0,52.0,35.0,9.0,1.0,,,-22.887681,-43.28179979999999
200,200,SmartFit Dom Lustosa,"""Rua Coronel Matos Dourado, 1280 - Dom Lustosa""",56.0,53,66,61,63,61,51,53,49,53,50,67,83.0,73.0,60.0,41.0,8.0,1.0,,,-3.7498338,-38.5846885
201,201,SmartFit Dom Severino,"""Av. Dom Severino, 1733 - F√°tima""",53.0,70,75,73,79,71,76,54,59,66,66,72,79.0,62.0,49.0,32.0,7.0,0.0,34.0,,-5.0698013,-42.7851864
202,202,SmartFit Dom Walmor,"""Rua Dom Walmor, 267 - Centro""",67.0,57,64,59,64,54,48,43,45,52,51,71,80.0,61.0,42.0,26.0,5.0,1.0,,,-22.756722,-43.452551
203,203,SmartFit Duque de Caxias,"""R. Professor José de Souza, 1216 - Jardim Vinte e Cinco de Agosto""",82.0,62,72,66,77,71,55,50,52,59,60,75,83.0,67.0,45.0,27.0,3.0,1.0,,,-22.7891035,-43.3063457
204,204,SmartFit Duque de Caxias 2,"""Rua José de Alvarenga, 95 - Centro""",54.0,49,71,57,64,59,52,45,44,51,47,62,79.0,63.0,37.0,7.0,0.0,,,,-22.7914394,-43.3118117
205,205,SmartFit Edilson Brasil Soares,"""Avenida Edilson Brasil Soares, Nº1167 - Edson Queiroz""",42.0,51,41,44,48,48,37,31,31,41,39,48,60.0,48.0,35.0,21.0,5.0,1.0,,,-3.7887482,-38.4727984
206,206,SmartFit Embu das Artes,"""Avenida Elias Yazbek, 1276 - Tingidor""",50.0,51,47,45,45,43,41,33,38,43,45,59,65.0,52.0,49.0,40.0,5.0,1.0,,,-23.6519248,-46.8497715
207,207,SmartFit Emiss√°rio,"""Avenida Presidente Wilson, 143 - José Menino""",89.0,65,97,83,89,88,70,53,50,58,55,59,74.0,74.0,57.0,42.0,10.0,1.0,,,-23.967675,-46.347669
208,208,SmartFit Enseada,"""Av. Dom Pedro I, nº 52 - Jardim Tejereba""",38.0,41,45,36,38,36,34,29,25,27,34,43,44.0,42.0,32.0,22.0,5.0,1.0,,,-23.9891244,-46.24818680000001
209,209,SmartFit Epit√°cio,"""Avenida Presidente Epit√°cio Pessoa, 660 - Torre""",46.0,39,34,42,49,49,50,44,46,44,47,64,68.0,50.0,45.0,30.0,8.0,0.0,44.0,,-7.1201009,-34.8645637
210,210,SmartFit Esperança,"""Avenida Capitão-Mor Gouveia, 1361, Loja 14 - Nossa Senhora de Nazaré""",44.0,49,57,57,61,66,63,50,50,59,59,69,75.0,69.0,57.0,42.0,9.0,1.0,45.0,,-5.819305900000001,-35.2367602
211,211,SmartFit Estação BH,"""Avenida Cristiano Machado, 11833 - Vila Cloris""",55.0,46,48,50,62,58,51,38,40,47,53,63,77.0,72.0,51.0,35.0,8.0,1.0,,,-19.82032,-43.94650000000001
212,212,SmartFit Estrada das Pitas,"""Estrada das Pitas, nº 899 - Parque Viana""",14.0,12,14,10,11,10,11,11,11,12,16,16,23.0,24.0,25.0,15.0,3.0,1.0,,,-23.5475151,-46.8709003
213,213,SmartFit Estrada de Jacarepagu√°,"""Estrada de Jacarepaguá, nº 7783 - Freguesia (Jacarepaguá)""",0.0,0,0,0,0,0,0,0,0,0,0,0,0.0,0.0,0.0,0.0,0.0,0.0,,,-22.9417118,-43.3426011
214,214,SmartFit Estrada do Cafund√°,"""Estrada do Cafunda, 1199 - Taquara""",54.0,55,72,62,60,51,41,36,33,41,42,45,60.0,58.0,46.0,30.0,6.0,0.0,,,-22.9142731,-43.37384549999999
215,215,SmartFit Estrada do M'Boi Mirim,"""Estrada do M'Boi Mirim, 2428 - Cap√£o Redondo""",87.0,83,92,79,90,86,85,66,58,70,64,76,104.0,101.0,78.0,59.0,10.0,1.0,,,-23.6754218,-46.7551801
216,216,SmartFit Estreito,"""Avenida Marinheiro Max Schramm, 2492 - Estreito""",51.0,37,43,53,55,50,47,30,31,37,40,43,54.0,48.0,38.0,24.0,6.0,1.0,,,-27.5798735,-48.5871066
217,217,SmartFit Express Mall Uberaba,"""Avenida Senador Salgado Filho, nº 4566 - Uberaba""",0.0,0,0,0,0,0,0,0,0,0,0,0,0.0,0.0,0.0,0.0,0.0,0.0,,,-25.4822575,-49.2243252
218,218,SmartFit Farol√¢ndia,"""Avenida Capit√£o Joaquim Martins Fontes, 250 - Farol√¢ndia""",51.0,58,51,60,66,58,47,41,47,59,68,65,60.0,64.0,53.0,34.0,9.0,1.0,,,20.593684,78.96288
219,219,SmartFit F√°tima,"""Avenida Deputado Oswaldo Studart, 200 - F√°tima""",70.0,64,62,67,72,71,62,50,56,65,66,85,87.0,76.0,56.0,42.0,8.0,1.0,,,-3.7532492,-38.5276962
220,220,SmartFit Fazendinha,"""R. Carlos Klemtz, 1994 - Fazendinha""",75.0,53,75,65,68,59,54,47,54,55,49,59,76.0,85.0,53.0,40.0,8.0,0.0,,,-25.4780634,-49.3298476
221,221,SmartFit Fiesta,"""Avenida Guarapiranga, 752 - Guarapiranga""",39.0,25,32,35,33,35,44,33,26,29,30,49,49.0,44.0,36.0,28.0,4.0,1.0,,,-23.6752515,-46.7345391
222,222,SmartFit Flamboyant,"""Av. Deputado Jamel Cecílio, 3900 - Jardim Goiás""",66.0,47,60,58,71,67,51,32,38,44,47,50,66.0,62.0,48.0,31.0,8.0,1.0,,,-16.7091344,-49.2343193
223,223,SmartFit Floresta,"""Rua Ladislau Ferreira, 1100 - Abrah√£o Alab""",30.0,53,46,65,63,84,75,67,73,73,76,77,82.0,102.0,,,,,1.0,0.0,-9.9702744,-67.8281497
224,224,SmartFit Floripa Shopping,"""Rodovia SC - 401 - Saco Grande""",46.0,45,51,59,64,60,59,41,40,45,56,63,66.0,66.0,43.0,31.0,9.0,1.0,,,-27.5384228,-48.5076864
225,225,SmartFit Fonseca,"""Alameda S√£o Boaventura, 706 - Fonseca""",76.0,65,76,70,75,70,65,53,50,61,59,61,70.0,63.0,52.0,32.0,8.0,0.0,,,-22.8816502,-43.0923493
226,226,SmartFit Foz do Iguaçu,"""Avenida Costa e Silva, 185 - Jardim Polo Centro""",45.0,46,53,56,66,57,60,46,47,51,55,61,68.0,62.0,52.0,40.0,11.0,1.0,,,-25.5340067,-54.5752053
227,227,SmartFit Fraga Maia,"""Av. Francisco Fraga Maia, 4727 - Cidade Nova""",38.0,42,41,46,45,38,35,24,24,29,39,51,57.0,54.0,41.0,13.0,1.0,,41.0,,-12.2256944,-38.9530512
228,228,SmartFit Franca,"""Avenida Doutor Ismael Alonso Y. Alonso, 500 - Bairro Jardim Veneza""",66.0,58,53,58,64,66,47,41,45,54,50,60,75.0,59.0,44.0,27.0,6.0,0.0,,,-20.5494339,-47.4018725
229,229,SmartFit Francisco S√°,"""Rua Francisco S√°, 41 - Copacabana""",46.0,38,46,46,50,52,49,38,31,36,38,38,41.0,42.0,30.0,31.0,10.0,1.0,,,-22.9832192,-43.1919477
230,230,SmartFit Franco da Rocha,"""Avenida dos Expedicionários, nº 77 - Loja 302 - Companhia Fazenda Belém""",47.0,55,63,54,62,60,58,54,46,61,63,78,75.0,78.0,60.0,45.0,11.0,1.0,,,-23.3291442,-46.7273875
231,231,SmartFit Frei Aureliano,"""Rua Frei Aureliano Grottamari, 679 - Capuchinhos""",30.0,38,33,42,43,37,34,18,21,29,39,51,51.0,40.0,29.0,8.0,0.0,,33.0,,-12.2622386,-38.9458928
232,232,SmartFit Fundação,"""Rua Aquidaban, S/N - Fundação""",70.0,49,66,64,64,61,62,44,40,47,48,56,75.0,74.0,57.0,39.0,10.0,1.0,,,-23.6109103,-46.5656381
233,233,SmartFit Gaivota,"""Rua Gaivota, 530 - Moema""",85.0,72,62,62,82,79,80,55,56,59,57,60,71.0,59.0,45.0,36.0,10.0,1.0,,,-23.6010269,-46.6656681
234,234,SmartFit Gama,"""Quadra Quadra 055 - Setor Central""",65.0,62,76,78,86,73,56,49,56,53,57,60,67.0,66.0,59.0,45.0,8.0,1.0,,,-23.2989319,-48.0552723
235,235,SmartFit Gamelinha,"""Avenida Professor Edgar Santos, 850 - Vila Nhocune""",0.0,0,0,0,0,0,0,0,0,0,0,0,0.0,0.0,0.0,0.0,0.0,0.0,,,-23.5517279,-46.49451879999999
236,236,SmartFit G√°vea,"""Praça Santos Dumont, 31 - Gávea""",60.0,62,72,71,71,68,66,44,40,46,46,57,56.0,47.0,35.0,19.0,5.0,0.0,,,-22.9724975,-43.2248003
237,237,SmartFit Gelson Fonseca,"""Avenida das Américas, 13.881 - Barra da Tijuca""",56.0,51,68,61,63,64,53,37,32,41,40,48,60.0,55.0,43.0,31.0,8.0,1.0,,,-23.0009923,-43.3693299
238,238,SmartFit General Carneiro,"""Avenida General Carneiro, 1120 (Dentro do supermercado Tauste) - Vila Lucy""",70.0,54,75,69,73,66,65,49,47,51,50,62,71.0,68.0,51.0,43.0,7.0,1.0,,,-23.5041834,-47.47927199999999
239,239,SmartFit Goiabeiras,"""Avenida Senador Filinto Müller, 28 - Goiabeiras""",54.0,47,49,53,51,56,61,45,32,40,51,49,57.0,63.0,51.0,38.0,26.0,4.0,6.0,,-15.5956867,-56.1108084
240,240,SmartFit Goi√°s,"""Rua Senador Vergueiro, 428 - Centro""",65.0,48,56,49,59,58,53,35,36,36,42,57,60.0,54.0,43.0,29.0,4.0,0.0,,,-22.9325484,-43.1777927
241,241,SmartFit Gomes de Carvalho,"""Rua Gomes de Carvalho, 1467  - Vila Olímpia""",98.0,68,43,32,43,51,65,37,28,45,47,60,88.0,60.0,43.0,25.0,7.0,0.0,,,-23.5965038,-46.6872485
242,242,SmartFit Graça,"""Rua Oito de Dezembro, 525 - Graça""",50.0,54,75,67,73,69,60,39,42,50,54,64,66.0,61.0,50.0,31.0,3.0,,43.0,,-13.0019294,-38.5261481
243,243,SmartFit Grand Plaza,"""Avenida Industrial, 700  - Jardim""",53.0,38,43,40,44,47,50,36,37,42,44,60,78.0,68.0,53.0,35.0,9.0,1.0,,,-23.6471159,-46.5340266
244,244,SmartFit Granja Viana Km 25,"""Rua Mesopot√¢mia, 109 - Jardim Passargada""",68.0,53,54,53,55,54,48,36,31,40,41,46,64.0,56.0,47.0,28.0,5.0,1.0,,,-23.6013019,-46.847008
245,245,SmartFit Green Plaza Shopping,"""Rua Hudson Gouthier, 278 - Santa Branca""",50.0,48,51,52,49,47,38,33,31,42,36,48,63.0,62.0,46.0,33.0,6.0,1.0,,,-19.8274509,-43.9673433
246,246,SmartFit Guadalupe,"""Av. Brasil, 22.155 - Guadalupe""",69.0,64,90,84,78,69,64,51,52,59,56,60,73.0,76.0,52.0,10.0,1.0,,,,-22.8309408,-43.3503975
247,247,SmartFit Guaianazes,"""Estrada Itaquera Guainazes, 2565 - Guainazes""",52.0,47,64,54,55,54,52,41,38,43,38,47,64.0,64.0,48.0,33.0,6.0,1.0,,,-23.5424348,-46.4247794
248,248,SmartFit Guaip√°,"""Rua Guaip√°, 1399 - Vila Leopoldina""",65.0,41,44,37,42,45,46,31,31,38,38,52,56.0,44.0,35.0,24.0,9.0,1.0,,,-23.5212571,-46.7304601
249,249,SmartFit Guanabara Barra,"""Avenida das Américas, 3501 - Barra da Tijuca""",64.0,56,69,60,62,63,56,43,35,39,43,51,65.0,54.0,34.0,28.0,6.0,0.0,,,-23.001215,-43.3382973
250,250,SmartFit Guanabara Campinho,"""Avenida Ernani Cardoso,350 - Campinho""",49.0,54,71,61,62,54,54,45,44,48,51,51,66.0,57.0,52.0,33.0,6.0,1.0,,,-22.8815933,-43.33897109999999
251,251,SmartFit Guar√° I,"""QI 16 - Guar√°""",76.0,61,82,79,87,80,63,47,47,59,60,67,72.0,78.0,56.0,49.0,9.0,0.0,,,-15.8394855,-47.9781412
252,252,SmartFit Guar√° II Unidade 1,"""QI 33, Bloco A, Cobertura - Guar√° II""",62.0,55,62,55,66,60,55,36,39,46,50,52,68.0,65.0,51.0,33.0,8.0,0.0,,,-15.8400555,-47.96726349999999
253,253,SmartFit Guar√° II Unidade 2,"""QI 27 Bloco A, Cobertura - Guar√° II""",65.0,56,70,71,78,71,54,40,41,51,49,54,66.0,59.0,52.0,39.0,8.0,1.0,,,-15.8376947,-47.9786285
254,254,SmartFit Guiomar Novaes,"""Av. das Américas, 17701 - Recreio dos Bandeirantes""",64.0,56,78,72,75,74,63,59,45,57,51,61,75.0,64.0,49.0,35.0,9.0,0.0,,,-23.0190533,-43.4833057
255,255,SmartFit Gutierrez ,"""Rua André Cavalcanti, 190 - Gutierrez""",75.0,51,61,58,64,68,55,38,39,47,47,60,63.0,52.0,38.0,29.0,7.0,1.0,,,-19.9330306,-43.9558016
256,256,SmartFit GV Shopping,"""Rua Sete de Setembro, 3500 - Centro""",72.0,51,56,60,69,72,46,40,45,58,52,65,73.0,58.0,57.0,33.0,7.0,1.0,,,-22.9054333,-43.1784447
257,257,SmartFit Haddock Lobo,"""Rua Haddock Lobo, 416 - Tijuca""",99.0,75,91,89,97,95,93,73,60,67,71,78,91.0,86.0,64.0,52.0,13.0,1.0,,,-22.9208725,-43.2199217
258,258,SmartFit Hauer,"""BR-116, 13044 - Novo Mundo""",71.0,43,47,53,58,56,53,37,40,46,40,60,73.0,57.0,52.0,31.0,6.0,0.0,,,-25.4743278,-49.2587853
259,259,SmartFit Higienópolis,"""Rua Doutor Albuquerque Lins, 844 - Santa Cecília""",56.0,52,58,54,66,69,62,40,33,45,52,52,60.0,54.0,46.0,26.0,9.0,1.0,,,-23.5371513,-46.657842
260,260,SmartFit Holandeses,"""Avenida dos Holandeses, 17 - Calhau """,63.0,73,87,82,84,85,76,47,51,62,59,71,77.0,76.0,57.0,43.0,8.0,1.0,43.0,,-2.488979,-44.24006989999999
261,261,SmartFit Horto,"""Avenida Silviano Brandão, Nº2419 - Horto""",66.0,48,55,58,65,60,47,34,33,45,41,53,65.0,55.0,45.0,30.0,5.0,1.0,,,-19.9078784,-43.9125285
262,262,SmartFit Hortol√¢ndia,"""Rua José Camilo de Camargo, 05 - Loteamento Remanso Campineiro""",46.0,40,40,35,32,29,25,20,22,26,27,40,48.0,39.0,32.0,17.0,3.0,0.0,,,-22.8637238,-47.2136602
263,263,SmartFit Humait√°,"""Travessa Humait√°, 1343 - Pedreira""",88.0,72,67,102,89,81,71,68,68,69,85,86,93.0,94.0,69.0,57.0,14.0,1.0,,,-1.4346845,-48.4728704
264,264,SmartFit Humait√°,"""Rua Humait√°, 270 - Humait√°""",80.0,61,69,68,73,77,69,47,37,42,46,54,62.0,56.0,41.0,26.0,8.0,1.0,,,-22.9579332,-43.1994984
265,265,SmartFit Ilha do Governador,"""Rua República Árabe da Síria, 383 - Portuguesa""",85.0,71,85,81,80,83,69,55,53,62,68,69,82.0,71.0,58.0,45.0,10.0,1.0,,,-22.8060016,-43.2094187
266,266,SmartFit Imbuí I,"""Rua dos Colibris, 252 - Imbuí""",59.0,71,75,78,87,84,71,49,58,69,76,89,83.0,73.0,63.0,30.0,2.0,,62.0,,-12.9717021,-38.4393673
267,267,SmartFit Imirim,"""Avenida Engenheiro Caetano Álvares, 5309 - Imirim""",61.0,54,60,54,64,67,65,47,50,53,49,59,70.0,67.0,53.0,40.0,7.0,1.0,,,-23.4843665,-46.637676
268,268,SmartFit Imperatriz,"""Rodovia BR-010 - Jardim São Luís""",73.0,64,69,77,84,85,82,71,79,78,83,81,99.0,97.0,72.0,55.0,12.0,1.0,,,-23.6513756,-46.7330562
269,269,SmartFit Imperatriz Leopoldina,"""Avenida Imperatriz Leopoldina, 1268 - Vila Leopoldina""",68.0,46,57,57,63,59,58,38,35,48,47,55,70.0,54.0,46.0,32.0,7.0,0.0,,,-23.5327545,-46.7299066
270,270,SmartFit Indaiatuba,"""Rua das Primaveras, 1050 - Jardim Pompéia""",77.0,61,63,61,65,61,52,48,49,54,58,65,79.0,64.0,51.0,38.0,6.0,1.0,,,-23.0958955,-47.2232658
271,271,SmartFit Independência,"""Av. Bar√£o do Rio Branco, 2805 - Centro""",64.0,48,45,53,61,52,47,37,36,47,49,54,60.0,48.0,39.0,9.0,1.0,,,,-22.9079426,-43.1848104
272,272,SmartFit Ing√°,"""Rua Tiradentes,155 - Inga""",54.0,50,63,62,68,71,61,48,44,51,53,52,59.0,53.0,49.0,36.0,11.0,1.0,,,-22.901276,-43.1235888
273,273,SmartFit Internacional Shopping,"""Rodovia Presidente Dutra, Saída 225, s/n  - Porto da Igreja""",57.0,46,49,40,48,53,54,39,38,39,42,58,71.0,59.0,43.0,29.0,6.0,1.0,,,-23.4786227,-46.5298507
274,274,SmartFit Ipanema,"""Rua Visconde de Piraja, nº 138 - Ipanema""",72.0,71,83,88,92,94,87,64,51,50,61,67,69.0,69.0,49.0,36.0,12.0,1.0,,,-22.9843309,-43.19913529999999
275,275,SmartFit Ipiranga,"""Rua do Manifesto, 931 - Ipiranga""",68.0,60,71,59,71,71,72,45,42,44,53,70,74.0,70.0,62.0,38.0,10.0,1.0,,,-23.5813201,-46.6007215
276,276,SmartFit Iracema,"""Rua Carlos Vasconcelos, 284 - Meireles""",64.0,43,60,60,63,55,45,36,34,47,47,52,57.0,54.0,43.0,31.0,10.0,1.0,,,-3.7245724,-38.5082561
277,277,SmartFit Itaborai ,"""Rua Pedro Azeredo, 77 - Centro""",75.0,58,71,61,63,56,45,45,42,52,49,67,67.0,62.0,52.0,40.0,6.0,1.0,,,-22.7466113,-42.8633046
278,278,SmartFit Itabuna,"""Avenida Aziz Maron, s/n - Jardim Vitória""",60.0,74,74,70,82,80,75,53,62,72,80,84,88.0,68.0,61.0,15.0,1.0,,71.0,,-14.7985039,-39.275709
279,279,SmartFit Itaigara,"""R. Wanderley Pinho, 527 - Itaigara""",61.0,67,72,72,79,82,67,49,49,63,63,77,79.0,63.0,56.0,35.0,3.0,,58.0,,-12.9910739,-38.4674655
280,280,SmartFit Itaim Paulista,"""Rua Tiburcio de Souza, 1126  - Itaim Paulista""",56.0,49,56,49,47,46,53,50,42,40,43,48,58.0,60.0,44.0,33.0,9.0,1.0,,,-23.5068686,-46.3960126
281,281,SmartFit Itajaí,"""Travessa Edmundo Heusi, 49 - Centro""",50.0,32,33,36,40,40,47,27,29,32,31,37,65.0,41.0,37.0,22.0,2.0,0.0,,,-26.9063742,-48.6583531
282,282,SmartFit Itanhang√° Park,"""Rua Joaquim Murtinho, 2293 - Centro""",63.0,51,59,69,76,79,94,52,39,43,53,60,75.0,77.0,70.0,55.0,35.0,8.0,1.0,,-22.9188303,-43.1831517
283,283,SmartFit Itapecerica da Serra,"""R. Carlos Domingues Tantico, 10  - Jardim Tereza Maria""",60.0,47,52,41,46,42,43,34,39,41,40,56,53.0,49.0,40.0,31.0,5.0,1.0,,,-23.7114643,-46.8484087
284,284,SmartFit Itapetininga ,"""Avenida Peixoto Gomide, 417 - Centro""",50.0,48,52,45,48,46,38,34,38,38,38,48,65.0,57.0,36.0,7.0,1.0,,,,-23.5851384,-48.04868949999999
285,285,SmartFit Itapevi,"""Rua José Michelotti, 88 - Bloco 2 - Cidade da Saúde""",88.0,78,77,72,74,76,71,63,65,70,70,74,97.0,95.0,66.0,50.0,9.0,1.0,,,-23.5418973,-46.9347897
286,286,SmartFit Ita√∫ Power Shopping,"""Av. General David Sarnoff, 5160 - Cidade Industrial""",47.0,27,33,34,43,41,38,25,27,31,32,48,57.0,46.0,37.0,24.0,5.0,,,,-19.9464739,-44.0231754
287,287,SmartFit Jabaquara,"""Rua das Perobas, 450 - Jardim Oriental""",78.0,66,68,60,67,71,71,54,50,50,53,64,83.0,65.0,48.0,36.0,7.0,1.0,,,-23.6445941,-46.6425512
288,288,SmartFit Jaboat√£o,"""Avenida Ayrton Senna da Silva, 242 - Piedade""",31.0,37,48,45,50,47,42,31,31,32,33,37,44.0,37.0,38.0,25.0,6.0,1.0,26.0,,-8.1775843,-34.9189166
289,289,SmartFit Jabotiana,"""Rua Major Jo√£o Teles , s/n - Jabotiana""",0.0,0,0,0,0,0,0,0,0,0,0,0,0.0,0.0,0.0,1.0,0.0,0.0,,,-10.9413637,-37.0804411
290,290,SmartFit Jacarecanga,"""Avenida Francisco Sá, Nº2670 - Jacarecanga""",53.0,42,53,49,55,48,47,33,37,48,50,63,69.0,63.0,54.0,42.0,8.0,1.0,,,-3.7208443,-38.5468942
291,291,SmartFit Jacareí,"""Av. Sen. Joaquim Miguel M. de Siqueira - Jardim Pereira do Amparo""",51.0,45,54,49,48,48,43,34,36,42,42,55,63.0,58.0,42.0,26.0,5.0,1.0,,,-23.303294,-45.96937370000001
292,292,SmartFit Jacarepagu√°,"""Estrada dos Três Rios, 607 - Jacarepaguá""",68.0,67,74,74,79,80,70,52,45,59,60,63,66.0,60.0,49.0,36.0,9.0,0.0,,,-22.9373827,-43.3382306
293,293,SmartFit Jaguaribe,"""Avenida Flora, 1555 - Jardim Jaguaribe""",77.0,54,67,61,69,68,69,52,45,48,51,62,74.0,72.0,64.0,47.0,8.0,1.0,,,-23.5634713,-46.79089010000001
294,294,SmartFit Jamaris,"""Avenida Jamaris, 398 - Planalto Paulista""",79.0,63,58,57,60,62,55,31,31,37,39,54,71.0,53.0,47.0,28.0,7.0,0.0,,,-23.6065638,-46.6599301
295,295,SmartFit Jandira,"""Avenida Carmine Gragnano, 20 - Centro""",78.0,57,61,54,63,64,64,52,47,55,44,55,66.0,65.0,53.0,42.0,7.0,1.0,,,-23.5304399,-46.9028053
296,296,SmartFit Jaragu√° do Sul,"""Av. Get√∫lio Vargas, 268 - Centro""",32.0,26,23,23,25,27,19,19,19,21,31,48,38.0,35.0,24.0,19.0,3.0,1.0,,,-26.4795646,-49.0856198
297,297,SmartFit Jardim,"""Rua Catequese, 385 - Vila Guiomar""",43.0,32,28,26,29,31,30,17,17,21,25,38,38.0,30.0,23.0,16.0,3.0,0.0,,,-23.6547701,-46.5329993
298,298,SmartFit Jardim Alc√¢ntara,"""Rua Capit√£o Juvenal Figueiredo, 482 - Almerinda""",58.0,46,66,59,61,54,37,47,44,45,42,51,61.0,55.0,39.0,7.0,1.0,,,,-22.8336218,-43.0062957
299,299,SmartFit Jardim Amazonas,"""Rua Maceio, 833 - Nossa Sra. Das Graças""",37.0,41,38,49,49,50,42,39,29,36,42,42,50.0,48.0,42.0,42.0,29.0,,,,-3.1053022,-60.0159854
300,300,SmartFit Jardim Bot√¢nico,"""Rua Jardim Bot√¢nico, 650 - Jardim Bot√¢nico""",67.0,58,58,54,58,60,54,36,29,41,48,57,56.0,46.0,34.0,21.0,6.0,1.0,,,-22.964204,-43.2180458
301,301,SmartFit Jardim Bot√¢nico,"""EQ 03/05 Bloco B sala 117 - Setor Habitacional Jardim Bot√¢nico""",46.0,46,56,54,57,56,45,34,32,39,41,41,46.0,45.0,44.0,27.0,6.0,1.0,,,41.1620552,-8.6120003
302,302,SmartFit Jardim Camburi,"""Rua Carlos Gomes Lucas, Nº 100 - Jardim Camburí""",76.0,64,69,72,75,73,58,45,42,52,63,73,75.0,79.0,58.0,40.0,11.0,1.0,,,-20.2566071,-40.2725154
303,303,SmartFit Jardim Clementino,"""Estrada Kizaemom Takeuti, 1300 - Jardim Clementino""",60.0,46,47,50,56,54,53,38,43,46,36,49,62.0,62.0,49.0,10.0,1.0,,,,-23.635455,-46.7891228
304,304,SmartFit Jardim das Américas,"""Av. Tancredo de Almeida Neves, 165 - Tancredo Neves""",64.0,44,49,54,52,54,57,34,29,41,51,56,63.0,74.0,61.0,52.0,42.0,9.0,6.0,,-19.5135784,-42.6114684
305,305,SmartFit Jardim das Américas,"""Av. Nossa Senhora de Lourdes, 63 - Jardim das Américas""",63.0,52,60,63,80,78,70,58,59,67,61,71,73.0,80.0,62.0,39.0,8.0,1.0,,,-25.4511959,-49.2291164
306,306,SmartFit Jardim dos Estados,"""Avenida Mato Grosso, 1744 - Centro""",31.0,45,55,53,54,56,78,52,35,35,43,58,72.0,71.0,56.0,38.0,22.0,6.0,0.0,,-20.4538163,-54.6035599
307,307,SmartFit Jardim Europa,"""Avenida Doutor Nilo Peçanha, 3228 - Bela Vista""",73.0,57,61,68,74,72,73,45,42,51,56,58,71.0,60.0,43.0,29.0,6.0,0.0,,,-30.0282171,-51.1583191
308,308,SmartFit Jardim Europa,"""Avenida dos Alpes Ancora, nº 1700 - Loja 1895 - Jardim Europa""",48.0,43,50,55,53,46,36,27,30,35,38,43,53.0,51.0,45.0,32.0,5.0,1.0,,,-16.7073622,-49.3051996
309,309,SmartFit Jardim Miriam,"""Avenida Cupecê, nº 5396 - Jardim Miriam""",61.0,47,58,53,54,52,52,53,47,48,47,55,71.0,84.0,55.0,35.0,6.0,1.0,,,-23.6810694,-46.6391965
310,310,SmartFit Jardins,"""Av. Deputado Pedro Valadares, 890  - Jardins Aracaju""",63.0,77,62,75,83,75,73,59,65,71,81,81,92.0,77.0,59.0,43.0,11.0,1.0,73.0,,-10.9360788,-37.0551697
311,311,SmartFit JK Ceil√¢ndia,"""Quadra QNM 34 Área Especial 01 - Ceilândia Norte""",69.0,58,67,59,68,64,60,46,51,54,50,56,80.0,76.0,60.0,40.0,10.0,1.0,,,-15.820354,-48.1229297
312,312,SmartFit Jo√£o Alencar,"""Av. Joao Alencar, 2181 - Cauamé""",4.0,61,39,39,65,71,66,63,64,68,66,80,71.0,80.0,77.0,75.0,49.0,9.0,,,2.8458987,-60.7069815
313,313,SmartFit Jo√£o Dias,"""Avenida Alberto Augusto Alves, 50 - Vila Andrade""",90.0,65,86,74,77,87,86,69,60,68,67,90,112.0,103.0,75.0,57.0,11.0,1.0,,,-23.6419978,-46.7346559
314,314,SmartFit Jo√£o Pessoa,"""Rua Presidente João Pessoa, 211 - Icaraí""",67.0,54,74,70,82,74,63,52,44,53,59,57,64.0,62.0,47.0,33.0,9.0,0.0,,,-22.9034915,-43.1018899
315,315,SmartFit Joaquim Floriano,"""R. Joaquim Floriano, 929/931 - Itaim Bibi""",108.0,82,64,52,55,68,86,49,45,69,57,67,89.0,62.0,54.0,33.0,9.0,1.0,,,-23.585953,-46.6788873
316,316,SmartFit Jóquei Clube,"""Avenida Senador Fernandes T√°vora, 820 - Joquei Clube""",74.0,72,80,72,80,81,69,57,67,66,67,87,97.0,100.0,73.0,51.0,11.0,1.0,,,-3.7661085,-38.5741285
317,317,SmartFit Jorge Krug,"""Rua Jorge Krug, 177 - Guanabara""",70.0,44,54,55,63,60,57,45,41,49,52,66,73.0,58.0,48.0,34.0,6.0,1.0,,,-22.8916156,-47.0614192
318,318,SmartFit José Lourenço,"""Rua Doutor José Lourenço, 905 - Meireles""",64.0,53,50,47,48,53,56,34,35,45,47,62,70.0,53.0,43.0,27.0,5.0,1.0,,,-3.732412,-38.5069589
319,319,SmartFit Juazeiro,"""Avenida Adolfo Viana, s/n - Centro""",0.0,0,0,0,0,0,0,0,0,0,0,0,0.0,0.0,0.0,0.0,0.0,0.0,,,-9.4182965,-40.5010112
320,320,SmartFit Juazeiro do Norte,"""Av. Padre Cícero, 2241 - Triângulo""",37.0,55,52,49,54,54,55,46,44,49,63,71,74.0,61.0,47.0,37.0,10.0,1.0,45.0,,-7.219065,-39.3233805
321,321,SmartFit J√∫lio de Castilho ,"""Avenida J√∫lio de Castilho, 1022 - Vila Sobrinho""",59.0,48,57,72,68,65,68,44,42,41,54,58,69.0,75.0,60.0,50.0,37.0,8.0,0.0,,-20.4568584,-54.640122
322,322,SmartFit Jundiaí Shopping,"""Avenida Nove de Julho, 3333 - Anhangaba√∫""",68.0,63,61,60,70,69,55,42,40,50,50,67,76.0,65.0,50.0,30.0,6.0,1.0,,,-23.1996761,-46.889651
323,323,SmartFit Juvevê,"""Rua Augusto Stresser, 1588 - Juvevê""",72.0,57,64,56,68,72,61,38,40,46,48,55,64.0,57.0,43.0,26.0,5.0,0.0,,,-25.4178044,-49.24617139999999
324,324,SmartFit Lago Norte,"""SHIN CA 02, Lote F, Bloco F, Loja 1, Terreo - Lago Norte""",33.0,35,43,44,42,38,31,24,24,28,32,36,36.0,32.0,26.0,22.0,5.0,0.0,,,-15.7381203,-47.8583727
325,325,SmartFit Laranjeiras,"""Avenida BNH, 57 - Parque Residencial Laranjeiras""",56.0,43,48,49,53,44,42,29,28,38,39,57,72.0,47.0,42.0,29.0,5.0,1.0,,,-20.1966286,-40.2533583
326,326,SmartFit Laranjeiras,"""Rua das Laranjeiras, 352 - Laranjeiras""",83.0,64,87,82,88,92,86,61,56,64,68,79,81.0,72.0,58.0,45.0,12.0,1.0,,,-22.9358523,-43.190171
327,327,SmartFit Largo do Machado,"""Largo do Machado, 29, interno a Galeria - Catete""",108.0,111,121,110,113,117,109,97,87,99,103,116,127.0,115.0,87.0,23.0,1.0,,,,-22.9315062,-43.1787761
328,328,SmartFit Largo do Tabo√£o,"""Praça Nicola Vivilechio, 103 - Jardim Bom Tempo""",72.0,64,52,54,65,60,64,46,50,58,50,59,71.0,64.0,56.0,41.0,6.0,1.0,,,-23.609388,-46.7576165
329,329,SmartFit Leblon,"""Avenida General San Martin, 512 - Leblon""",23.0,18,23,25,25,23,25,12,11,15,15,16,20.0,15.0,14.0,8.0,2.0,0.0,,,-22.9848409,-43.2211988
330,330,SmartFit Leonardo da Vinci,"""Av. Leornardo da Vinci, 1234 - Vila Guarani""",52.0,39,49,45,50,52,55,37,33,37,39,39,49.0,50.0,32.0,26.0,6.0,1.0,,,-23.6401619,-46.6404009
331,331,SmartFit Liberdade,"""Avenida da Liberdade, 902 - Liberdade""",62.0,45,51,53,63,86,73,52,48,57,59,83,78.0,67.0,49.0,42.0,15.0,1.0,,,-23.5604149,-46.6385535
332,332,SmartFit Limeira,"""Avenida Campinas, 50 - Vila Cidade Jardim""",30.0,25,26,31,31,24,19,17,25,24,27,44,47.0,34.0,26.0,3.0,0.0,,,,-22.5692982,-47.3991208
333,333,SmartFit Linhares,"""Avenida Prefeito Samuel Batista Cruz, N 1812 - Shell""",47.0,38,46,39,43,45,28,27,23,29,38,53,69.0,49.0,38.0,22.0,5.0,1.0,,,-19.3940891,-40.0651459
334,334,SmartFit Litoral Plaza,"""Avenida Ayrton Senna da Silva, 1511 - Tude Bastos (Sítio do Campo)""",32.0,28,32,36,39,38,32,26,23,27,32,37,44.0,32.0,27.0,19.0,7.0,1.0,,,-23.9968234,-46.4090328
335,335,SmartFit Luxemburgo,"""Rua Guaicuí, 600 - Coração de Jesus""",61.0,47,52,52,52,47,39,24,23,32,36,39,49.0,41.0,34.0,16.0,3.0,1.0,,,-16.6937919,-44.35435529999999
336,336,SmartFit Macap√°,"""Rua Leopoldo Machado, 2334 - Central""",40.0,38,50,42,51,52,48,38,40,49,43,40,56.0,40.0,33.0,23.0,6.0,1.0,,,0.0311847,-51.0630388
337,337,SmartFit Maceió Shopping,"""Av. Comendador Gustavo Paiva, 2990 - Mangabeiras""",44.0,56,59,52,60,63,64,47,50,61,60,65,74.0,61.0,52.0,40.0,9.0,1.0,47.0,,-9.6494913,-35.7170117
338,338,SmartFit Madalena,"""Rua Heitor Maia Filho, S/N - QO, L01 - Madalena""",0.0,0,0,0,0,0,0,0,0,0,0,0,0.0,0.0,0.0,0.0,0.0,0.0,,,-8.0578476,-34.9033547
339,339,SmartFit Madureira,"""Estrada do Portela, 41 - Madureira""",58.0,55,72,58,73,65,58,51,52,58,51,65,79.0,64.0,43.0,9.0,0.0,,,,-22.8736594,-43.3379905
340,340,SmartFit Maguari,"""Rodovia Augusto Montenegro, KM 09 - Parque Guajar√° (Icoaraci)""",68.0,66,62,88,84,69,79,56,64,69,74,83,82.0,96.0,83.0,58.0,12.0,1.0,,,-1.3347262,-48.4527051
341,341,SmartFit Mais Shopping,"""Rua Amador Bueno, 229 - Santo Amaro""",54.0,38,33,29,38,44,53,41,33,41,43,66,80.0,59.0,38.0,26.0,4.0,0.0,,,-23.6530286,-46.7105358
342,342,SmartFit Mall Dom Pedro I,"""Avenida Dom Pedro I, Nº1550 - Ipiranga""",58.0,51,52,45,49,50,41,33,34,41,43,51,70.0,68.0,50.0,31.0,6.0,0.0,,,-23.5728058,-46.6108918
343,343,SmartFit Manaíra Shopping,"""Av. Governador Flávio Ribeiro Coutinho, 805 - Manaíra Shopping - 3º andar""",50.0,51,59,67,84,72,64,58,55,63,73,77,81.0,77.0,65.0,48.0,28.0,6.0,27.0,,-7.098869199999999,-34.8449749
344,344,SmartFit Maracana√∫,"""Avenida Carlos Jereissati, 100 - Jereissati II""",58.0,53,60,51,56,58,50,42,40,48,52,61,70.0,71.0,62.0,41.0,9.0,,,,-3.8805132,-38.6219978
345,345,SmartFit Maracatins,"""Al. Dos Maracatins, 1313 - Indianópolis""",63.0,58,50,49,48,55,61,46,38,38,37,50,69.0,48.0,42.0,31.0,7.0,1.0,,,-23.6111698,-46.6644798
346,346,SmartFit Maric√° ,"""Rua Vereador Luiz Antonio Da Cunha 35, Loja 37 - Centro""",78.0,66,96,79,80,78,67,66,56,72,61,88,82.0,62.0,51.0,44.0,6.0,1.0,,,-22.9159172,-42.8167289
347,347,SmartFit Marília,"""Av. Tiradentes, 1048  - Quadra 2 - Lote B - Fragata""",41.0,37,41,38,44,40,36,32,29,40,48,47,55.0,42.0,31.0,16.0,3.0,0.0,,,-23.529598,-46.6315546
348,348,SmartFit Maring√°,"""Av. Advogado Hor√°cio Raccanello Filho, 5120 - Novo Centro""",58.0,52,58,55,53,56,49,39,36,43,49,49,78.0,62.0,43.0,27.0,4.0,1.0,,,-23.4177917,-51.9310692
349,349,SmartFit Mario Covas,"""Rodovia Mário Covas, nº 575 - Coqueiro""",1.0,3,3,5,6,5,3,3,3,4,3,5,8.0,8.0,10.0,7.0,1.0,0.0,,,-19.7507108,-40.3799016
350,350,SmartFit M√°rio Guimar√£es,"""Avenida Doutor M√°rio Guimar√£es, 638 - Centro""",64.0,59,66,57,58,47,40,35,35,43,42,50,62.0,55.0,42.0,23.0,5.0,1.0,,,28.3106065,-16.4125784
351,351,SmartFit Mariz e Barros,"""Rua Mariz e Barros, 70 - Icaraí""",50.0,40,58,60,61,54,47,37,32,37,38,44,51.0,47.0,38.0,27.0,8.0,0.0,,,-22.9096863,-43.1082083
352,352,SmartFit Marquês de Abrantes,"""Rua Marquês de Abrantes, 20 - Flamengo""",45.0,35,43,43,46,49,41,31,26,29,35,37,37.0,35.0,29.0,26.0,10.0,0.0,,,-22.9340428,-43.1774979
353,353,SmartFit Mata do Ipê,"""Avenida Guilherme Ferreira, 1550  - S√£o Benedito""",68.0,55,60,59,60,64,43,35,39,47,47,65,82.0,69.0,47.0,34.0,6.0,1.0,,,-19.763205,-47.93601040000001
354,354,SmartFit Matatu,"""Rua Barros Falc√£o, 453 - Matatu""",52.0,54,79,66,77,65,52,48,47,56,57,71,69.0,64.0,49.0,29.0,2.0,,56.0,,-12.976997,-38.49489
355,355,SmartFit Mau√°,"""Av. Governador M√°rio Covas J√∫nior, 287 - Centro""",54.0,42,47,44,52,55,45,31,36,35,40,69,77.0,59.0,45.0,25.0,3.0,0.0,,,-24.0900357,-46.6077271
356,356,SmartFit Maurício Galli,"""Rua Mauricio Galli, 555 - Vila Sedenho""",50.0,50,52,43,46,45,35,28,30,37,39,45,62.0,53.0,38.0,23.0,5.0,0.0,,,-21.7633546,-48.1645372
357,357,SmartFit Maxi Shopping,"""Av. Antônio Frederico Ozanan, 6000  - Jardim Liberdade""",49.0,37,37,30,39,36,29,23,23,31,32,42,47.0,36.0,28.0,21.0,5.0,1.0,,,-23.1692949,-46.8917403
358,358,SmartFit Méier,"""Rua Oliveira, 13 - Meier""",44.0,44,53,53,55,50,47,41,36,43,37,48,53.0,46.0,38.0,23.0,7.0,1.0,,,-22.9031453,-43.28140339999999
359,359,SmartFit Meireles,"""Avenida Senador Virgílio Távora, 303 - Meireles""",53.0,44,45,48,49,52,45,27,32,37,40,46,57.0,48.0,35.0,20.0,5.0,0.0,,,-3.731576099999999,-38.491193
360,360,SmartFit Mendes Vila Natal,"""Rua Sinfonia Italiana, N 36 - Graja√∫ - Jardim S√£o Bernardo""",57.0,44,48,40,46,50,52,37,32,39,43,43,60.0,67.0,49.0,38.0,8.0,1.0,,,-23.7556313,-46.70828960000001
361,361,SmartFit Menino Deus,"""Avenida Get√∫lio Vargas, 1644 - Menino Deus""",40.0,31,41,39,46,42,44,29,24,33,35,39,47.0,40.0,28.0,22.0,5.0,1.0,,,-30.05955059999999,-51.2227025
362,362,SmartFit Mesquita,"""Rua Pref. José Montes Paixão, 1860 - Centro""",39.0,37,53,55,52,47,38,35,39,46,41,52,65.0,61.0,34.0,8.0,1.0,,,,-22.7841551,-43.4304396
363,363,SmartFit Messejana,"""Rua Manuel Castelo Branco, 352 - Messejana""",55.0,57,62,61,63,64,53,48,46,55,53,77,79.0,73.0,53.0,40.0,9.0,,,,-3.8322624,-38.4923427
364,364,SmartFit Metrô Carioca ,"""Largo da Carioca, s/n - Centro""",125.0,84,59,42,43,56,70,48,43,50,71,115,123.0,67.0,38.0,21.0,4.0,0.0,,,-22.9068423,-43.1781471
365,365,SmartFit Metrô Sapopemba,"""Avenida Sapopemba, 11.128 - Jardim Planalto""",73.0,63,67,62,70,67,64,55,51,53,53,60,85.0,86.0,56.0,49.0,10.0,1.0,,,-23.5969085,-46.5236848
366,366,SmartFit Midway,"""Avenida Bernardo Vieira, 3775 - Tirol""",55.0,63,62,62,73,80,78,55,49,59,66,82,83.0,66.0,52.0,38.0,10.0,1.0,41.0,,47.2537414,11.601487
367,367,SmartFit Minas Shopping,"""Avenida Cristiano Machado, 4000 - Uni√£o""",49.0,32,44,41,52,48,42,35,36,41,45,52,57.0,51.0,45.0,27.0,6.0,1.0,,,-19.8746192,-43.9261961
368,368,SmartFit Mirandópolis,"""Avenida Jabaquara, 2979 - Mirandopolis""",58.0,40,57,48,53,51,58,36,33,33,36,40,48.0,43.0,40.0,30.0,3.0,0.0,,,-23.6293346,-46.6447403
369,369,SmartFit Mogi Guaçu,"""Av. Mogi Mirim, 210 - Centro""",45.0,51,56,59,59,50,46,36,38,49,47,62,69.0,61.0,38.0,35.0,6.0,0.0,42.0,,-22.3759811,-46.9433946
370,370,SmartFit Montes Claros,"""Av. Donato Quintino, 90 - Cidade Nova""",63.0,46,63,60,62,53,47,45,45,53,59,66,74.0,70.0,53.0,34.0,10.0,1.0,,,-16.7403124,-43.8708108
371,371,SmartFit Mooca,"""Avenida Paes de Barros, 3000 - Parque da Mooca""",56.0,40,46,42,47,50,42,31,27,31,37,43,54.0,46.0,39.0,25.0,7.0,0.0,,,-23.5767576,-46.5873563
372,372,SmartFit Moreira César,"""Rua Coronel Moreira César, 26 - Icaraí""",78.0,59,78,78,84,89,73,57,55,63,68,73,90.0,75.0,61.0,37.0,12.0,1.0,,,-22.8244859,-43.3781627
373,373,SmartFit Morumbi,"""Rua Aureliano Guimar√£es, 201 - Vila Andrade""",107.0,90,97,84,92,97,96,63,59,63,68,78,98.0,88.0,75.0,61.0,12.0,1.0,,,-23.6293201,-46.7370768
374,374,SmartFit Mossoró,"""Rua João da Escóssia, 1102 - Nova Betânia""",63.0,79,58,99,100,104,84,84,79,93,98,97,113.0,88.0,67.0,52.0,12.0,1.0,85.0,,-5.183450199999999,-37.3578474
375,375,SmartFit Mucuripe,"""Avenida da Abolição, 3860 - Mucuripe""",58.0,56,57,61,58,59,55,42,40,50,46,71,82.0,64.0,44.0,31.0,5.0,0.0,,,-3.7256268,-38.4848552
376,376,SmartFit Neo,"""Avenida Maria de Jesus Condeixa, 600 - - Jardim Palma Travassos""",54.0,44,41,40,47,51,37,28,29,37,36,44,59.0,45.0,32.0,20.0,3.0,1.0,,,-21.1902059,-47.792683
377,377,SmartFit Nilópolis,"""Avenida Get√∫lio Vargas, 1444 - Loja B - Centro""",50.0,52,79,69,78,69,53,53,48,57,57,61,74.0,69.0,48.0,40.0,6.0,1.0,,,-22.809252,-43.4171103
378,378,SmartFit Nordestina,"""Avenida Nordestina, 3550 - Vila Nova Curuçá""",65.0,63,71,71,74,68,63,53,52,57,58,65,80.0,88.0,72.0,51.0,12.0,1.0,,,-23.5126543,-46.4276671
379,379,SmartFit Norte Sul,"""Avenida Presidente Ernesto Geisel, 2300 - Jardim Jóquei Club""",36.0,26,30,27,31,31,40,27,22,24,32,33,49.0,50.0,43.0,32.0,22.0,5.0,1.0,,-20.4802787,-54.62665759999999
380,380,SmartFit North Shopping,"""Avenida Bezerra de Menezes, 2450 - S√£o Gerardo""",53.0,39,55,47,57,52,54,42,44,52,61,75,72.0,72.0,55.0,29.0,6.0,1.0,,,-3.7352505,-38.5662836
381,381,SmartFit Nova Suissa,"""Av. Silva Lobo, 770 - Nova Suissa""",77.0,62,71,67,70,65,59,46,45,48,48,67,73.0,60.0,50.0,36.0,8.0,0.0,,,-19.930014,-43.972302
382,382,SmartFit Novo Buritis,"""Avenida Professor M√°rio Werneck, 2652 - Buritis""",63.0,44,50,50,51,49,40,29,27,33,37,46,51.0,49.0,37.0,26.0,7.0,1.0,,,-19.9760093,-43.9708997
383,383,SmartFit Nsa. Copacabana 690,"""Av. Nossa Senhora de Copacabana, 690  - Copacabana""",73.0,70,80,83,82,87,84,64,58,62,70,71,77.0,75.0,58.0,45.0,11.0,1.0,,,-22.9709347,-43.1868676
384,384,SmartFit Nsa. Copacabana 749,"""Av. Nsa. Senhora de Copacabana, 749 - Copacabana""",72.0,77,90,83,91,91,87,66,62,72,72,71,84.0,79.0,63.0,45.0,13.0,0.0,,,-22.9725893,-43.18791299999999
385,385,SmartFit Nsa. Copacabana 928,"""Avenida Nossa Senhora de Copacabana, 928 - Copacabana""",57.0,54,65,69,77,77,76,56,48,52,57,58,66.0,58.0,52.0,41.0,14.0,0.0,,,-22.9754333,-43.19012590000001
386,386,SmartFit N√∫cleo Bandeirante,"""Terceira Avenida Mercado Central, s/n.  - N√∫cleo Bandeirante""",81.0,90,97,93,99,95,74,55,58,66,67,74,90.0,81.0,60.0,43.0,9.0,1.0,,,-15.8711543,-47.97087
387,387,SmartFit Ocian,"""Avenida Presidente Kennedy, 6791 - Cidade Ocian""",62.0,71,72,64,64,67,61,49,46,52,51,57,72.0,74.0,54.0,35.0,10.0,1.0,,,-24.0240512,-46.4739947
388,388,SmartFit Oleg√°rio Maciel,"""Avenida Oleg√°rio Maciel, 600 - Barra da Tijuca""",91.0,69,87,76,83,90,83,64,45,61,58,67,84.0,63.0,42.0,29.0,8.0,1.0,,,-23.0097061,-43.3042988
389,389,SmartFit Oliveira Paiva,"""Avenida Oliveira Paiva, 1350 - Cidade dos Funcion√°rios""",66.0,50,58,56,62,59,50,37,42,47,48,61,67.0,63.0,47.0,36.0,5.0,0.0,,,-3.7964091,-38.4936977
390,390,SmartFit Open Mall Panamby,"""Rua José Ramon Urtiza, 975 - Vila Andrade""",38.0,32,36,35,40,37,39,25,18,24,26,26,34.0,37.0,27.0,21.0,4.0,0.0,,,-23.6330599,-46.7287767
391,391,SmartFit Osasco KM 18,"""Rua Professor José Azevedo Minhoto, 324 - KM 18""",70.0,51,60,56,56,61,66,49,41,48,48,56,72.0,65.0,48.0,41.0,8.0,1.0,,,-23.5293886,-46.7941875
392,392,SmartFit Oscar Freire,"""Rua Oscar Freire, 228 - Cerqueira César""",62.0,48,50,46,48,48,46,32,26,33,37,37,51.0,39.0,30.0,17.0,4.0,0.0,,,-23.5671599,-46.6641487
393,393,SmartFit Otto Niemeyer,"""Avenida Otto Niemeyer, nº2500 - Loja 116 - Camaquã""",26.0,23,29,26,35,31,32,22,24,28,27,32,42.0,32.0,30.0,20.0,5.0,1.0,,,-30.1047026,-51.2389356
394,394,SmartFit Palato,"""Avenida Fernandes Lima, 548 - Farol""",69.0,59,72,70,83,78,78,60,69,75,73,91,93.0,69.0,68.0,47.0,10.0,1.0,59.0,,-9.645805,-35.7337013
395,395,SmartFit Palmares,"""Avenida dos Palmares, 1000 - Vila Palmares""",40.0,34,31,30,34,32,26,20,24,24,25,38,49.0,46.0,34.0,18.0,2.0,0.0,,,-23.649769,-46.56126
396,396,SmartFit Palmas Centro,"""Quadra 104 Norte, Avenida LO 2 - Plano Diretor Sul""",85.0,59,75,78,78,70,64,44,63,70,66,72,,,,,,,9.0,,-10.1805788,-48.3274845
397,397,SmartFit Palmas Sul,"""Quadra 501 Sul, ACSU SO 50, Conj. 1, Av. Teotônio Segurado, Lote 17 - Plano Diretor Sul""",13.0,9,12,11,14,10,10,7,9,10,13,15,,,,,,,7.0,,-10.2196474,-48.33896439999999
398,398,SmartFit Pampulha,"""Av. Portugal, 3450 - Jardim Atl√¢ntico""",49.0,49,46,56,55,52,42,33,34,39,40,50,57.0,45.0,35.0,25.0,4.0,0.0,,,39.39987199999999,-8.224454
399,399,SmartFit Pão de Açúcar Enseada,"""Av. Dom Pedro I, 195 - Jardim Tejereba""",55.0,52,63,64,70,68,61,47,42,49,48,54,61.0,70.0,48.0,39.0,8.0,1.0,,,-23.9882974,-46.248482
400,400,SmartFit Papicu,"""Av. Eng. Santana Jr., 699 - Papicu""",58.0,49,50,50,54,52,46,34,35,41,44,60,69.0,53.0,49.0,26.0,5.0,0.0,,,-3.7354422,-38.4816227
401,401,SmartFit Parangaba,"""Avenida Doutor Silas Munguba, 643 - Parangaba""",61.0,50,59,55,58,63,51,44,42,49,51,71,68.0,62.0,47.0,38.0,7.0,,,,-3.7790425,-38.5594439
402,402,SmartFit Park Jacarepagu√° ,"""Estrada de Jacarepagu√°, 6069 - Freguesia (Jacarepagu√°)""",71.0,68,93,91,96,94,87,69,63,70,65,69,86.0,85.0,71.0,56.0,14.0,1.0,,,-22.9474259,-43.3396702
403,403,SmartFit ParkShopping Campo Grande,"""Estrada do Monteiro, 1200 - Campo Grande""",60.0,56,85,73,94,77,68,60,55,58,61,62,74.0,70.0,66.0,47.0,13.0,1.0,,,-22.92822,-43.57332
404,404,SmartFit Parnaíba ,"""Avenida São Sebastião, 2915 - Piauí""",51.0,69,77,72,76,79,64,51,62,65,72,66,77.0,73.0,59.0,40.0,8.0,1.0,45.0,,-2.9094294,-41.7516498
405,405,SmartFit Parnamirim Centro,"""Avenida Brigadeiro Everaldo Breves, 780 - Centro""",47.0,55,57,61,59,63,57,55,45,48,54,72,69.0,49.0,49.0,38.0,6.0,0.0,41.0,,-5.9216047,-35.262956
406,406,SmartFit Parque Barigui,"""Rua General M√°rio Tourinho, 2489 - Semin√°rio""",60.0,47,61,55,63,62,56,40,39,42,42,42,44.0,52.0,40.0,26.0,7.0,0.0,,,-25.4327589,-49.3128456
407,407,SmartFit Parque Boa Esperança,"""Avenida Ragueb Chohfi, N 3248 - Parque Boa Esperança""",53.0,57,56,51,51,55,52,40,39,43,42,49,53.0,64.0,43.0,27.0,6.0,0.0,,,-23.59646,-46.4541
408,408,SmartFit Parque das Bandeiras,"""Av. John Boyd Dunlop, 3900 - Jardim Ipaussurama""",24.0,18,24,28,31,32,27,26,25,34,35,33,32.0,39.0,24.0,17.0,4.0,1.0,,,-22.9254442,-47.1272285
409,409,SmartFit Parque das Nações,"""Rua Oratório, 1765 - Parque das Nações""",57.0,39,45,41,43,46,42,34,32,34,31,43,51.0,45.0,41.0,31.0,5.0,1.0,,,38.7686316,-9.095858
410,410,SmartFit Parque Oratório,"""Rua Jorge Beretta, 1007 - Parque Erasmo Assunção""",57.0,50,55,50,51,54,52,38,41,41,39,52,60.0,56.0,45.0,37.0,7.0,0.0,,,-23.6360129,-46.50327
411,411,SmartFit Parque Santa Teresa,"""Rua Eduardo Augusto Mesquita, Nº1147 - Parque Santa Teresa""",65.0,55,56,57,54,52,48,40,42,43,40,51,69.0,74.0,53.0,36.0,8.0,1.0,,,-23.5659292,-46.8209231
412,412,SmartFit Parque S√£o Domingos,"""Avenida do Anast√°cio 947 - Parque S√£o Domingos""",79.0,68,77,67,72,75,71,47,50,62,56,61,78.0,70.0,57.0,45.0,8.0,1.0,,,-23.5002133,-46.7343485
413,413,SmartFit Parque Shopping Bahia,"""Avenida Santos Dumont, 4360 - Centro""",59.0,65,69,70,83,81,70,55,59,64,71,81,83.0,75.0,58.0,35.0,2.0,,57.0,,-12.8904069,-38.3236291
414,414,SmartFit Parque Shopping Barueri,"""R. Gen. de Divis√£o de Pedro Rodrigues da Silva, 400 - Nova Aldeinha""",66.0,41,42,33,35,35,39,33,32,33,30,57,67.0,73.0,56.0,50.0,23.0,21.0,,,-23.5134029,-46.855564
415,415,SmartFit Partage Norte Shopping Natal,"""Av. Dr. Jo√£o Medeiros Filho. 2395 - Potengi""",36.0,57,60,60,62,66,61,53,45,57,53,62,67.0,63.0,55.0,42.0,7.0,1.0,41.0,,-5.7574402,-35.2466311
416,416,SmartFit Passo Fundo,"""Avenida Presidente Vargas, 1610 - São Cristóvão""",49.0,23,33,33,35,36,32,27,29,35,33,43,61.0,53.0,35.0,19.0,6.0,1.0,,,-22.9040865,-43.1894747
417,417,SmartFit Pátio Belém,"""Tv. Padre Eutiquio, 1078 - Batista Campos""",58.0,63,51,74,81,78,76,56,57,53,69,72,82.0,75.0,61.0,46.0,10.0,1.0,,,-1.4579842,-48.4953617
418,418,SmartFit Pátio Maceió,"""Avenida Menino Marcelo, 3800 - Cidade Universit√°ria""",50.0,53,62,67,79,70,73,61,64,73,64,68,73.0,77.0,70.0,55.0,12.0,1.0,43.0,,-9.5593611,-35.74600849999999
419,419,SmartFit P√°tio Osasco,"""Av. Dos Autonomistas, 896 - Vila Yara""",47.0,41,46,44,46,49,50,36,33,35,39,48,57.0,52.0,43.0,34.0,6.0,0.0,,,-23.543855,-46.76347699999999
420,420,SmartFit Patteo Olinda Shopping ,"""Av. Carlos de Lima X Av. José Augusto Moreira - Casa Caiada""",42.0,64,63,67,88,84,65,54,47,59,65,63,68.0,62.0,54.0,35.0,9.0,1.0,33.0,,-7.9824958,-34.8375212
421,421,SmartFit Paulínia,"""Rua Bolívia, 60 - Jardim América""",44.0,34,34,33,36,34,29,23,24,31,38,43,40.0,30.0,26.0,15.0,2.0,1.0,,,-23.5711263,-46.6666876
422,422,SmartFit Paulista,"""Avenida Paulista, 664 - Bela Vista""",87.0,65,64,57,65,70,78,54,44,57,59,76,87.0,73.0,51.0,33.0,10.0,1.0,,,-23.5668737,-46.6492443
423,423,SmartFit Paulista 807,"""Avenida Paulista, 807 - Bela Vista""",58.0,48,47,42,47,53,58,41,40,45,53,65,87.0,59.0,48.0,31.0,6.0,1.0,,,-23.5673279,-46.6513345
424,424,SmartFit Pavuna,"""Avenida Sargento de Milícias, 265 - Pavuna""",54.0,54,71,60,64,59,48,45,46,51,46,63,82.0,66.0,43.0,7.0,1.0,,,,-22.8040173,-43.3598914
425,425,SmartFit Pedro Corrêa,"""Estrada Coronel Pedro Correia, s/n - Jacarepagu√°""",81.0,78,86,86,86,88,72,58,49,57,63,63,73.0,73.0,53.0,45.0,13.0,1.0,,,-22.9665084,-43.3903629
426,426,SmartFit Península Shopping,"""St. de Habitações Individuais Norte CA 1 - Lago Norte""",56.0,70,71,70,81,70,60,41,36,50,53,60,67.0,59.0,39.0,31.0,8.0,1.0,,,-15.7212065,-47.8825933
427,427,SmartFit Perdizes,"""Rua Jo√£o Ramalho, 1085 - Perdizes""",58.0,48,53,48,55,56,52,35,36,39,41,46,52.0,47.0,40.0,26.0,5.0,0.0,,,-23.5342327,-46.67607950000001
428,428,SmartFit Pereira In√°cio,"""Avenida Comendador Pereira In√°cio, 820 - Jardim Vergueiro""",72.0,52,59,60,67,71,56,42,42,58,54,69,83.0,69.0,54.0,38.0,6.0,1.0,,,-23.513256,-47.4559346
429,429,SmartFit Petrolina,"""Avenida da Integração, 550 - São José""",64.0,85,79,80,93,89,80,74,71,82,95,89,93.0,92.0,81.0,57.0,13.0,1.0,81.0,,-9.3919815,-40.4855505
430,430,SmartFit Petrópolis,""" Rua do imperador, 1085 - Centro""",59.0,49,47,63,65,56,45,47,41,41,54,61,61.0,49.0,35.0,9.0,1.0,,,,-22.512279,-43.179689
431,431,SmartFit Pinda,"""Rua Guilherme de Souza Silva, 3125 - Residencial e Comercial Vila Verde""",28.0,28,33,33,33,27,20,16,20,21,23,32,42.0,37.0,28.0,17.0,5.0,1.0,,,41.6514763,-8.4349104
432,432,SmartFit Pinhais,"""Avenida Maringá, Nº350 - Vila Emiliano Perneta""",76.0,50,57,58,58,58,54,45,44,53,41,61,68.0,64.0,53.0,44.0,7.0,1.0,,,-25.4121513,-49.1901979
433,433,SmartFit Pinheiros,"""Rua dos Pinheiros, 1037 - Pinheiros""",87.0,67,64,54,65,69,76,45,42,55,58,66,93.0,66.0,53.0,39.0,9.0,0.0,,,-23.5677716,-46.6876063
434,434,SmartFit Pirelli,"""Av. Pedro Américo, 23 - Casa Branca""",45.0,37,43,42,51,48,42,32,31,35,38,47,56.0,59.0,41.0,32.0,5.0,1.0,,,-23.6615197,-46.51039249999999
435,435,SmartFit Pituba,"""Avenida Manoel Dias da Silva, 2053 - Pituba""",51.0,59,67,59,64,60,57,39,45,54,59,63,69.0,57.0,41.0,25.0,3.0,,46.0,,-13.005086,-38.4580578
436,436,SmartFit Planalto Paulista,"""Av. José Maria Whitaker, 1366 - Planalto Paulista""",51.0,51,54,49,60,64,55,38,32,40,44,49,57.0,49.0,43.0,32.0,8.0,1.0,,,-23.6123403,-46.6449022
437,437,SmartFit Plaza Shopping,"""Avenida Rotary, 624 - Centro""",76.0,50,84,63,71,73,75,62,56,73,59,62,78.0,75.0,64.0,44.0,10.0,1.0,,,-23.7232218,-46.543195
438,438,SmartFit Pompeu Loureiro,"""Rua Pompeu Loureiro, 35  - Copacabana""",33.0,27,31,32,34,39,33,26,20,21,26,24,29.0,26.0,21.0,16.0,6.0,1.0,,,-22.9732756,-43.1922221
439,439,SmartFit Ponta Grossa,"""Rua Jacobe Holzman, 333 - Olarias""",45.0,40,56,44,46,39,37,36,33,39,34,46,57.0,43.0,33.0,23.0,5.0,1.0,,,-25.105961,-50.1583251
440,440,SmartFit Ponta Verde,"""Rua Professor Sandoval Arroxelas, nº360 - Ponta Verde""",61.0,72,94,87,91,88,78,62,66,77,78,80,85.0,78.0,64.0,49.0,10.0,1.0,,,-9.658837,-35.7042282
441,441,SmartFit Ponte Rasa,"""Av. S√£o Miguel, 2409 - Vila Marieta""",54.0,51,56,49,52,55,61,45,42,44,39,51,65.0,65.0,51.0,41.0,9.0,1.0,,,-23.5104629,-46.50797379999999
442,442,SmartFit Port√£o,"""Rua Eduardo Carlos Pereira, 3605 - Port√£o""",63.0,50,56,56,57,60,56,40,45,54,47,57,78.0,74.0,56.0,37.0,6.0,0.0,,,-25.4779293,-49.2887376
443,443,SmartFit Porto Velho Shopping,"""Av. Rio Madeira, 3288 - Flodoaldo Pontes Pinto""",60.0,55,54,52,63,67,68,71,68,66,68,72,59.0,56.0,50.0,41.0,31.0,6.0,25.0,,-8.7481518,-63.8757944
444,444,SmartFit Praça da Árvore,"""Avenida Jabaquara, 660 - Mirandopolis""",63.0,48,49,44,55,58,62,40,36,44,49,59,77.0,52.0,43.0,28.0,7.0,0.0,,,-23.6099732,-46.638226
445,445,SmartFit Praça do Forró,"""Praça Padre Aleixo Monteiro Mafra, 19 - São Miguel Paulista""",39.0,45,44,40,44,46,42,36,35,45,46,54,60.0,62.0,41.0,32.0,6.0,0.0,,,-23.4924013,-46.44580149999999
446,446,SmartFit Praça Passeio Público,"""Rua das Marrecas, 20 - Centro""",52.0,36,26,23,22,28,33,22,21,24,26,44,51.0,27.0,23.0,6.0,0.0,,,,-22.9121975,-43.1779717
447,447,SmartFit Praça Seca,"""Rua Cândido Benicio, 2360 - Praça Seca""",65.0,52,80,67,69,63,50,42,36,49,44,49,63.0,60.0,52.0,37.0,9.0,1.0,,,-22.90125,-43.3551483
448,448,SmartFit Prado Boulevard,"""Avenida Washington Luís, 2480 - Vila Marieta""",69.0,46,52,49,58,60,46,30,35,47,42,48,59.0,55.0,43.0,26.0,6.0,1.0,,,-22.9370944,-47.0499452
449,449,SmartFit Praia da Costa ,"""Rua Luiz Fernandes Reis, n 243 - Praia da Costa""",63.0,56,65,67,77,69,53,36,37,42,48,56,59.0,53.0,41.0,32.0,10.0,1.0,,,-20.3332654,-40.2809213
450,450,SmartFit Praia de Itaparica,"""Avenida Saturnino Rangel Mauro, 1766 - Praia de Itaparica""",70.0,54,68,73,77,70,57,38,39,47,52,62,63.0,66.0,44.0,34.0,8.0,0.0,,,-20.3691882,-40.30434390000001
451,451,SmartFit Praia do Canto I,"""Rua Joaquim Lírio, 455 - Praia do Canto""",75.0,67,77,76,88,77,66,41,40,49,51,58,69.0,60.0,46.0,30.0,7.0,0.0,,,-20.297442,-40.2931064
452,452,SmartFit Praia do Canto II,"""Rua Joaquim Lírio, 455 - Praia do Canto""",0.0,1,1,1,1,1,1,1,1,1,0,1,1.0,1.0,0.0,0.0,0.0,0.0,,,-20.297442,-40.2931064
453,453,SmartFit Pres. Costa e Silva,"""Av. Presidente Costa e Silva, 808 - Boqueir√£o""",57.0,58,65,56,59,60,59,41,39,45,46,59,68.0,61.0,42.0,31.0,8.0,1.0,,,-25.5030924,-49.2368174
454,454,SmartFit Presidente Prudente,"""Rua Siqueira Campos, 1545 - Vila Roberto""",41.0,40,40,39,44,45,46,33,37,44,47,60,66.0,51.0,40.0,32.0,9.0,1.0,,,-22.1315911,-51.39090909999999
455,455,SmartFit Primitiva,"""Rua Dona Primitiva Vianco, 400 - Centro""",61.0,37,36,36,46,51,44,38,37,46,46,69,72.0,55.0,40.0,26.0,5.0,0.0,,,-23.5318267,-46.7760416
456,456,SmartFit Príncipe de Gales,"""Avenida Príncipe de Gales, 253 - Vila Príncipe de Gales""",35.0,30,32,33,37,47,30,27,24,30,34,46,45.0,49.0,34.0,21.0,2.0,0.0,,,-23.6618792,-46.54978
457,457,SmartFit Queimados,"""Avenida Olímpia Silva, 740 - Pacaembu""",68.0,63,74,63,68,57,48,47,42,51,45,57,63.0,54.0,45.0,31.0,4.0,0.0,,,-22.7172866,-43.5540108
458,458,SmartFit Quintino,"""Rua Quintino Bocai√∫va, 769 - Centro""",73.0,55,64,64,73,66,57,48,46,54,56,67,91.0,72.0,49.0,39.0,8.0,1.0,,,-23.3054362,-51.1684653
459,459,SmartFit Raposo Shopping,"""Rodovia Raposo Tavares, km 14,5 - Jardim Arpoador""",50.0,42,51,44,51,55,49,41,41,43,49,52,65.0,64.0,47.0,35.0,5.0,1.0,,,-23.5879026,-46.7510194
460,460,SmartFit Raposo Tavares,"""Rodovia Raposo Tavares, 7201, km 17 - Jardim Cambara""",56.0,42,47,45,45,50,48,34,35,41,36,43,57.0,50.0,40.0,27.0,5.0,1.0,,,-23.5845985,-46.7794604
461,461,SmartFit Rebouças,"""Avenida Marechal Floriano Peixoto, 2680 - Rebouças""",60.0,37,40,40,45,59,56,37,34,42,41,51,73.0,52.0,39.0,26.0,5.0,1.0,,,-25.4527981,-49.2615874
462,462,SmartFit Rep√∫blica Argentina,"""Avenida Rep√∫blica Argentina, 5044 - Jardim S√£o Paulo I""",70.0,55,62,64,76,64,53,55,56,61,49,66,84.0,85.0,61.0,50.0,12.0,1.0,,,-25.5366197,-54.544277
463,463,SmartFit Resende Shopping,"""Avenida Saturnino Braga, 369 - Centro""",0.0,0,0,0,0,0,0,0,0,0,0,0,0.0,0.0,0.0,0.0,0.0,0.0,,,-22.4658559,-44.4523229
464,464,SmartFit Reta da Penha,"""Reta da Penha, 2150 - Barro Vermelho""",88.0,65,68,68,74,79,65,47,43,54,60,77,106.0,74.0,52.0,38.0,9.0,1.0,,,-20.2949779,-40.2980132
465,465,SmartFit Ribeira,"""Avenida Porto dos Mastros, 237 - Ribeira""",54.0,53,86,76,79,66,54,53,57,59,74,84,83.0,79.0,66.0,28.0,3.0,,46.0,,-12.921771,-38.5022811
466,466,SmartFit Rio Anil Shopping,"""Av. São Luís Rei de França, 8 - Turu""",53.0,53,75,81,90,79,68,57,58,70,71,79,84.0,85.0,77.0,50.0,9.0,1.0,,,-2.5335738,-44.22506
467,467,SmartFit Rio Claro,"""Rua 14, 289 - Est√°dio""",29.0,30,38,35,38,35,26,19,23,28,28,46,47.0,34.0,27.0,15.0,2.0,1.0,38.0,,-22.42018,-47.5673336
468,468,SmartFit Rio das Ostras,"""Rodovia Amaral Peixoto, 3690 - Bosque da Praia""",58.0,61,77,71,68,61,48,43,42,44,44,57,58.0,52.0,39.0,10.0,1.0,,,,-22.528883,-41.9529797
469,469,SmartFit Rio das Pedras,"""Avenida Rio das Pedras, 1600 - Jardim Aricanduva""",59.0,49,55,45,52,53,53,40,38,41,39,60,67.0,54.0,47.0,33.0,6.0,0.0,,,-23.5682542,-46.5100367
470,470,SmartFit Rio Pequeno,"""Avenida do Rio Pequeno, Nº1234 - Rio Pequeno""",69.0,55,61,57,63,60,60,46,45,51,52,59,76.0,72.0,55.0,39.0,9.0,1.0,,,-23.5666828,-46.753557
471,471,SmartFit Riocentro,"""Avenida Salvador Allende, 6555 - Barra da Tijuca""",55.0,53,60,59,58,57,50,33,28,38,39,44,55.0,50.0,43.0,32.0,8.0,1.0,,,-22.9774425,-43.4112205
472,472,SmartFit RioMar Kennedy,"""Avenida Sargento Hermínio Sampaio 3.100 - Presidente Kennedy""",55.0,55,58,58,66,66,55,47,46,58,65,74,79.0,80.0,62.0,39.0,10.0,1.0,,,-3.7265275,-38.5667861
473,473,SmartFit Riomar Shopping,"""Avenida Delmiro Gouveia 400, LOJA 174 - Coroa do Meio""",40.0,51,44,52,65,64,53,45,45,51,65,65,69.0,68.0,51.0,42.0,8.0,1.0,,,-10.94517,-37.04747
474,474,SmartFit Rodrigues Alves,"""Av. Conselheiro Rodrigues Alves, 352 - Vila Mariana""",68.0,60,67,61,73,75,75,48,43,51,64,69,74.0,58.0,50.0,42.0,8.0,1.0,,,-23.5834047,-46.6416733
475,475,SmartFit Rondonópolis,"""Av. Lions Internacional, 1950 - Residencial Sagrada Família""",61.0,39,39,59,50,53,50,31,33,40,47,44,63.0,68.0,53.0,39.0,31.0,6.0,5.0,,-16.473191,-54.6105285
476,476,SmartFit Rua 07,"""Rua 7, Ch√°cara 300 - Vicente Pires""",73.0,64,71,71,75,63,47,36,46,58,65,69,72.0,80.0,62.0,39.0,7.0,1.0,,,-15.8131575,-48.034976
477,477,SmartFit Rua 10,"""Rua 10 Ch√°cara 179 - Setor Habitacional Vicente Pires""",17.0,18,19,17,19,18,12,9,10,14,17,19,20.0,22.0,19.0,14.0,4.0,1.0,,,-15.8032275,-48.0175522
478,478,SmartFit Rua Assunção,"""Rua Assunção, 665 - José Bonifácio""",74.0,47,57,57,61,59,55,40,42,53,55,71,66.0,57.0,48.0,35.0,5.0,1.0,,,-21.0548524,-49.6784964
479,479,SmartFit Rua Conde de Bonfim I,"""Rua Conde de Bonfim, 426 - Tijuca""",61.0,56,66,63,66,68,66,48,44,50,51,63,75.0,55.0,39.0,24.0,4.0,1.0,,,-22.9252986,-43.23474969999999
480,480,SmartFit Rua Conde de Bonfim II,"""Rua Conde de Bonfim, 610 - Tijuca""",72.0,65,73,70,78,78,67,49,42,56,54,58,73.0,66.0,50.0,36.0,10.0,0.0,,,-22.9306325,-43.2386612
481,481,SmartFit Rua Cubat√£o,"""Rua Cubat√£o, 184/196 - Vila Mariana""",45.0,44,41,40,43,45,43,30,28,38,36,51,57.0,43.0,35.0,23.0,6.0,0.0,,,-23.573865,-46.6448848
482,482,SmartFit Rua da Consolação II,"""Rua da Consolação, 3080 - Consolação""",56.0,49,51,51,56,59,55,37,34,40,47,46,57.0,46.0,37.0,25.0,7.0,0.0,,,-23.5594922,-46.66730800000001
483,483,SmartFit Rua da Passagem,"""Rua da Passagem, 160 - Lojas A, B, C e D - Botafogo""",58.0,50,56,57,65,61,59,47,39,44,50,45,54.0,46.0,41.0,27.0,9.0,0.0,,,-22.9554061,-43.1810335
484,484,SmartFit Rua F√°bia ,"""Rua F√°bia, 653 - Vila Romana""",70.0,64,71,61,74,76,72,47,46,56,51,65,77.0,58.0,51.0,40.0,8.0,1.0,,,-23.5271748,-46.6975786
485,485,SmartFit Rua Frei Gaspar,"""Rua Frei Gaspar, 1677 - Parque S√£o Vicente""",49.0,52,57,52,55,45,43,35,36,42,32,42,53.0,53.0,42.0,36.0,6.0,1.0,,,-23.96156,-46.3946726
486,486,SmartFit Rua Jo√£o Pessoa,"""Rua Jo√£o Pessoa, 630 - Centro""",54.0,40,44,46,43,43,36,29,30,38,35,48,55.0,41.0,31.0,23.0,4.0,1.0,,,-23.3009907,-51.1705681
487,487,SmartFit Rua Riachuelo,"""Rua Riachuelo, 142 - Centro""",82.0,60,79,77,93,92,92,62,57,65,64,75,87.0,78.0,70.0,54.0,16.0,1.0,,,-22.9070828,-43.18191480000001
488,488,SmartFit Rua Rio de Janeiro,"""Rua Rio de Janeiro, 1893 - Lourdes""",74.0,55,57,62,69,66,72,38,45,51,54,65,71.0,60.0,45.0,31.0,8.0,1.0,,,-19.9312655,-43.9419432
489,489,SmartFit Rubens de Mendonça,"""Av. Historiador Rubens de Mendonça, 42/43  - Alvorada""",57.0,47,45,57,51,46,58,50,41,45,55,53,69.0,68.0,54.0,49.0,36.0,7.0,7.0,,-15.5877178,-56.0832995
490,490,SmartFit Rudge Ramos,"""Avenida Caminho do Mar, 3629 - Rudge Ramos""",49.0,42,58,48,55,54,46,37,40,45,42,57,62.0,48.0,39.0,26.0,4.0,1.0,,,-23.6552304,-46.5720244
491,491,SmartFit Rui Barbosa,"""Avenida Rui Barbosa, 2727 - Joaquim T√°vora""",78.0,56,62,57,69,74,61,39,44,48,57,69,86.0,69.0,51.0,36.0,10.0,1.0,,,-3.7462921,-38.5126034
492,492,SmartFit Sabar√°,"""Av. Nsa. Senhora do Sabar√°, 2523 - Vila Sofia""",72.0,65,69,61,64,65,72,51,51,51,55,64,74.0,64.0,54.0,44.0,7.0,1.0,,,-23.6606577,-46.6951064
493,493,SmartFit Sábbado D'Angelo,"""Av. Sabado D'Angelo, n 2110 - Itaquera""",79.0,61,84,71,72,63,73,52,47,52,49,51,68.0,81.0,60.0,47.0,9.0,0.0,,,-23.5515908,-46.4451461
494,494,SmartFit Sacom√£,"""Rua Bom Pastor, 2826 - Ipiranga""",56.0,51,54,48,59,60,58,47,45,44,45,69,71.0,64.0,42.0,27.0,6.0,0.0,,,-23.6013246,-46.6038814
495,495,SmartFit Saens Peña,"""Rua Conde de Bonfim, 366 - Tijuca""",84.0,61,84,83,95,97,96,71,68,77,80,91,111.0,93.0,63.0,43.0,10.0,1.0,,,-22.9240934,-43.2332946
496,496,SmartFit Saguaçu,"""Rua João Pessoa, 276 - Saguaçu""",51.0,38,37,41,46,40,38,27,29,30,36,45,57.0,44.0,36.0,22.0,5.0,1.0,,,-26.2772492,-48.8492737
497,497,SmartFit Salvador Norte Shopping,"""Rodovia BA-305 - São Cristóvão""",43.0,57,64,64,74,64,58,47,52,54,61,76,79.0,65.0,56.0,30.0,2.0,,41.0,,-12.9092103,-38.3510181
498,498,SmartFit Salvador S√£o Caetano,"""Estrada de Campinas, nº 334 - São Caetano""",42.0,51,64,54,54,45,40,40,43,50,54,68,72.0,64.0,49.0,12.0,1.0,,34.0,,-12.932644,-38.4820557
499,499,SmartFit Salvador Shopping,"""Avenida Tancredo Neves, 3133 - Caminho das Árvores""",76.0,70,74,76,89,102,117,74,74,75,78,103,114.0,84.0,67.0,34.0,4.0,,48.0,,-12.9785389,-38.4550888
500,500,SmartFit Samambaia Norte,"""QS 401 Conjunto 01 Lote 01 - Samambaia Norte""",40.0,48,59,63,59,45,40,37,38,43,42,52,64.0,62.0,51.0,38.0,7.0,1.0,,,-15.8872044,-48.1455113
501,501,SmartFit Samambaia Sul,"""QS 316 CONJ 7 LOTES 1 A 9 - Samambaia Sul""",49.0,52,57,56,64,56,44,33,35,42,41,45,52.0,61.0,45.0,34.0,8.0,0.0,,,-15.8764244,-48.0637608
502,502,SmartFit Santa Bárbara D'Oeste,"""Rua do Osmio, 975 - Vila Mollon IV""",32.0,26,29,27,28,24,21,16,16,23,25,38,40.0,35.0,25.0,16.0,3.0,0.0,,,-22.7500718,-47.3761343
503,503,SmartFit Santa Cecília,"""Alameda Barros, 59 - Santa Cecília""",55.0,50,58,53,65,71,69,48,38,49,51,57,62.0,56.0,48.0,36.0,12.0,1.0,,,-23.5385155,-46.6524683
504,504,SmartFit Santa Cruz,"""Rua Domingos de Morais, 2423 - Vila Mariana""",82.0,64,67,68,82,85,85,57,57,64,71,74,87.0,72.0,60.0,40.0,10.0,1.0,,,-23.5975677,-46.6363034
505,505,SmartFit Santa Felicidade,"""Avenida Manoel Ribas, 5712 - Santa Felicidade""",65.0,63,61,58,64,63,55,43,46,56,46,52,70.0,66.0,49.0,40.0,7.0,0.0,,,-25.4054641,-49.3264339
506,506,SmartFit Santa Inês,"""Avenida Contagem,1310 - Vila Nova Vista""",59.0,54,60,54,56,52,41,30,36,40,45,48,68.0,58.0,47.0,35.0,6.0,1.0,,,-19.88501,-43.9061979
507,507,SmartFit Santa Maria,"""Shopping Praça Nova - Piso Boulevard - Urlândia""",39.0,33,33,33,39,29,28,26,28,31,38,47,56.0,60.0,38.0,23.0,5.0,0.0,,,-18.9127749,-48.2755227
508,508,SmartFit Santa Maria QCL 115,"""Quadra CL 115 - Santa Maria""",39.0,36,48,49,52,48,31,27,32,44,44,48,59.0,57.0,42.0,31.0,4.0,1.0,,,34.9530337,-120.4357191
509,509,SmartFit Santos Dumont ,"""Avenida Santos Dumont, 3870 - Aldeota""",66.0,59,65,61,66,72,54,35,36,44,52,58,72.0,63.0,47.0,28.0,7.0,1.0,,,-3.7396991,-38.4894273
510,510,SmartFit S√£o Carlos,"""Av. Francisco Pereira Lopes, 1701 - Jardim Bandeirantes""",54.0,68,76,75,83,78,67,59,56,62,70,73,81.0,76.0,55.0,49.0,12.0,1.0,46.0,,-22.0048368,-47.9045704
511,511,SmartFit S√£o Cristov√£o,"""Rua São Luís Gonzaga, 477 - São Cristovão""",78.0,52,63,58,66,60,60,48,45,50,49,58,64.0,57.0,49.0,38.0,8.0,1.0,,,-22.9001759,-43.2269876
512,512,SmartFit São Gonçalo Centro,"""Avenida Presidente Kennedy, 311 - """,61.0,57,62,59,64,62,51,42,43,47,42,50,67.0,52.0,36.0,26.0,5.0,1.0,,,-33.3938481,-70.56112139999999
514,514,SmartFit Sapopemba,"""Avenida Sapopemba, 8671 - Jardim Adutora""",53.0,51,57,52,54,54,54,44,45,40,36,53,67.0,60.0,57.0,36.0,6.0,1.0,,,-23.5986894,-46.5173338
515,515,SmartFit Satelite,"""R. Pedro Tursi, 180 - Jardim Satélite""",59.0,64,77,71,73,73,60,50,56,57,57,73,86.0,78.0,60.0,40.0,9.0,0.0,37.0,,-23.2222914,-45.8853856
516,516,SmartFit Sa√∫de,"""Avenida Jabaquara, 1381 - Mirandópolis""",93.0,68,69,65,73,72,77,52,47,55,58,73,88.0,68.0,51.0,39.0,9.0,1.0,,,-23.6165453,-46.6384426
517,517,SmartFit Savassi,"""Rua Fernandes Tourinho, 195 - Funcion√°rios""",86.0,61,60,56,69,71,67,42,40,50,55,73,85.0,59.0,46.0,30.0,8.0,1.0,,,-19.9395482,-43.9364882
518,518,SmartFit Senador Vergueiro,"""Rua Senador Vergueiro, 93,  Loja 15 - Flamengo""",61.0,52,69,66,74,74,63,44,38,41,47,55,60.0,57.0,47.0,14.0,0.0,0.0,,,-22.935955,-43.17507060000001
519,519,SmartFit Serrinha,"""Avenida T 4 - Setor Bueno""",61.0,53,60,60,60,58,56,31,30,40,41,56,62.0,56.0,43.0,28.0,8.0,1.0,,,-16.710887,-49.2671411
520,520,SmartFit Sete Lagoas,"""Avenida Renato Azeredo, 1385 - Centro""",94.0,58,70,70,70,79,61,60,49,57,66,93,103.0,68.0,52.0,11.0,0.0,,,,-19.4669564,-44.2447178
521,521,SmartFit Setor Bueno I,"""R: C-242 QUADRA 544 AREA 2 - Jardim América""",62.0,52,53,54,59,56,52,38,31,37,41,50,66.0,55.0,45.0,27.0,6.0,1.0,,,-16.7138092,-49.2812908
522,522,SmartFit Setor Bueno II,"""Rua T 44 - Setor Bueno""",86.0,65,69,76,72,76,59,35,43,46,52,68,81.0,71.0,51.0,33.0,8.0,1.0,,,-16.6893154,-49.280516
523,523,SmartFit Setor Oeste,"""Avenida República do Líbano - Setor Oeste""",73.0,66,62,59,63,66,54,36,34,44,52,61,74.0,61.0,46.0,28.0,5.0,1.0,,,-16.6818034,-49.2663312
524,524,SmartFit Setor Sul,"""Rua 132 - Setor Sul""",79.0,56,55,55,59,66,61,32,30,37,38,53,67.0,54.0,40.0,28.0,6.0,0.0,,,-16.6970713,-49.2573531
525,525,SmartFit Set√∫bal ,"""Rua José Hipólito Cardoso, 254 - Boa Viagem""",54.0,70,81,76,84,85,70,51,49,62,75,70,75.0,66.0,51.0,41.0,9.0,1.0,51.0,,-8.14151,-34.9095887
526,526,SmartFit Shopping Castanheira,"""Rodovia BR-316 - Castanheira""",51.0,42,51,73,70,62,61,58,57,59,64,66,78.0,74.0,62.0,41.0,8.0,0.0,,,-1.4017037,-48.4276804
527,527,SmartFit Shopping Cidade Norte,"""Avenida Alfredo Antonio de Oliveira, 2077 - Jardim Planalto""",66.0,47,46,43,46,41,35,35,34,36,45,53,80.0,64.0,46.0,22.0,4.0,0.0,,,-20.7713648,-49.3865026
528,528,SmartFit Shopping Cidade Sorocaba,"""Avenida Itavuvu, 3365 - Jardim Santa Cecília""",51.0,41,52,50,52,47,40,40,37,36,37,45,64.0,57.0,50.0,26.0,4.0,1.0,,,-23.4556857,-47.4824758
529,529,SmartFit Shopping Curitiba,"""Rua Brigadeiro Franco, 2300 - Centro""",53.0,39,40,44,63,70,66,45,47,54,58,60,68.0,60.0,45.0,32.0,5.0,0.0,,,-25.4409909,-49.2774894
530,530,SmartFit Shopping Del Rey,"""Avenida Presidente Carlos Luz, 3001 - Caiçara""",60.0,44,45,49,53,58,46,33,36,45,46,50,67.0,60.0,52.0,35.0,8.0,1.0,,,-19.8896791,-43.9686513
531,531,SmartFit Shopping Diadema,"""Av. Afonso Monteiro da Cruz, 1150 - Serraria""",64.0,43,57,47,54,47,44,42,41,45,49,56,71.0,58.0,50.0,30.0,4.0,1.0,,,-23.7047254,-46.6175221
532,532,SmartFit Shopping Estação,"""Av. Sete de Setembro, 2775 - Centro""",67.0,44,45,52,61,73,80,54,63,62,62,74,88.0,66.0,60.0,36.0,7.0,1.0,,,-10.9080267,-37.0542597
533,533,SmartFit Shopping Grande Rio,"""Rua Maria Soares Sendas, 111 - Parque Barreto""",61.0,53,80,68,70,73,59,54,56,62,55,72,83.0,81.0,64.0,42.0,7.0,1.0,,,-22.7959176,-43.3510385
534,534,SmartFit Shopping Guararapes,"""Avenida General Barreto de Menezes, 800 - Piedade""",32.0,32,51,49,57,65,64,43,37,45,48,54,64.0,54.0,43.0,28.0,8.0,1.0,29.0,,-8.1671642,-34.9185707
535,535,SmartFit Shopping Heliópolis,"""Estrada das lágrimas, 2008 - São João Clímaco""",57.0,41,50,48,50,47,44,41,38,39,46,47,58.0,67.0,52.0,33.0,5.0,1.0,,,-23.6188435,-46.5928626
536,536,SmartFit Shopping Interlagos,"""Av. Interlagos, 2255, Loja Ancora ACA - Jardim Umuarama""",60.0,52,59,53,64,62,64,51,48,47,52,50,69.0,66.0,55.0,39.0,11.0,1.0,,,-23.6758989,-46.6770724
537,537,SmartFit Shopping Itaguaçu,"""Rua Geroncio Thives, 1079 - Barreiros""",77.0,57,56,78,80,71,72,57,49,58,65,63,75.0,72.0,66.0,48.0,11.0,1.0,,,-27.5852384,-48.6141452
538,538,SmartFit Shopping Light,"""R. Coronel Xavier de Toledo, nº 23 - República""",42.0,31,29,30,36,40,46,34,37,33,35,58,61.0,39.0,29.0,15.0,3.0,0.0,,,-23.5465766,-46.6386315
539,539,SmartFit Shopping Metrô Itaquera,"""Av. José Pinheiro Borges, s/n - Vila Carmosina""",79.0,76,85,72,77,91,84,63,65,73,76,97,130.0,109.0,86.0,54.0,10.0,1.0,,,-23.5326001,-46.4505396
540,540,SmartFit Shopping Metrô Tucuruvi,"""Av. Dr. Antonio Maria Laet, 566 - Parada Inglesa""",85.0,70,64,70,83,85,93,71,60,69,65,88,119.0,109.0,73.0,53.0,13.0,1.0,,,-23.4797237,-46.6024538
541,541,SmartFit Shopping Metrópole,"""Praça Samuel Sabatini - Centro""",72.0,56,65,58,65,74,70,54,60,61,60,87,78.0,68.0,49.0,37.0,9.0,0.0,,,-23.6945109,-46.5516433
542,542,SmartFit Shopping Pateo Itaqu√°,"""Avenida Ítalo Adami, 1809 - Vila Zeferina""",32.0,38,42,31,41,42,41,34,34,37,37,36,50.0,45.0,43.0,31.0,6.0,1.0,,,-23.5069304,-46.3471663
543,543,SmartFit Shopping Piedade,"""Rua Conselheiro Junqueira Ayres, 165 - Barris""",71.0,49,43,54,57,54,56,48,48,56,65,91,75.0,52.0,37.0,7.0,1.0,,,,-12.9834609,-38.5130754
544,544,SmartFit Shopping Piracicaba,"""Avenida Limeira, 722 - Bloco LUC B3 - Vila Arei√£o""",50.0,30,38,36,52,52,47,36,34,39,46,65,57.0,45.0,36.0,24.0,5.0,0.0,,,-22.7040032,-47.6495155
545,545,SmartFit Shopping Piratas,"""Estrada do Marinas, 91 - Praia do Jardim""",65.0,44,66,61,63,57,51,43,41,44,48,63,62.0,60.0,45.0,31.0,8.0,1.0,,,-23.0031218,-44.2996996
546,546,SmartFit Shopping Santa √örsula,"""Rua São José, 933 - Centro""",61.0,52,63,59,70,72,65,51,56,62,71,86,97.0,81.0,59.0,35.0,7.0,1.0,,,-22.9045923,-43.1744911
547,547,SmartFit Shopping São José,"""R. Dona Izabel A Redentora, 1434 - Centro""",82.0,63,57,56,63,67,64,52,49,56,53,71,100.0,88.0,67.0,54.0,12.0,7.0,,,-25.5382211,-49.2044033
548,548,SmartFit Shopping Tabo√£o,"""Rodovia Régis Bittencourt, km 271,5 - """,69.0,55,68,60,71,68,67,52,50,52,49,55,67.0,66.0,50.0,36.0,10.0,1.0,,,-23.6177312,-46.7997723
549,549,SmartFit Shopping Vila Velha,"""Av. Luciano das Neves 2418 - """,49.0,58,63,70,80,76,61,54,45,59,60,71,83.0,82.0,59.0,41.0,10.0,0.0,,,-20.3520419,-40.2977172
550,550,SmartFit SIG,"""SIG, Quadra 4, Bloco A, Lote 125 a 175 - SIG""",38.0,37,31,34,36,43,47,17,17,22,27,37,54.0,46.0,26.0,16.0,3.0,0.0,,,-15.7917014,-47.9136163
551,551,SmartFit Sinop,"""Praça dos Três Poderes, 00 quadra 113 lote 3 e 4 - Setor Comercial""",51.0,30,35,45,46,51,54,32,37,37,39,40,58.0,64.0,53.0,44.0,33.0,10.0,9.0,,-15.91848,-48.10196999999999
552,552,SmartFit Sítio Cercado,"""Rua Izaac Ferreira da Cruz, 1930 - Sítio Cercado""",55.0,42,64,57,59,56,47,42,46,52,43,52,68.0,71.0,51.0,39.0,7.0,1.0,,,-25.5362486,-49.283846
553,553,SmartFit Sobradinho Central ,"""QD 12 LT CL - 13 - Sobradinho""",40.0,44,40,42,42,41,36,27,27,36,36,40,58.0,43.0,34.0,20.0,4.0,0.0,,,-15.7087442,-47.9143041
554,554,SmartFit Sobradinho Quadra 3,"""Quadra 3 Conjunto E - Sobradinho""",61.0,66,71,68,69,69,56,46,44,56,54,60,72.0,73.0,51.0,41.0,7.0,1.0,,,-15.6529888,-47.8098559
555,555,SmartFit Sobral,"""Av. Monsenhor Aloisio Pinto, 300  - Dom Expedito""",32.0,34,36,42,47,61,53,36,39,49,64,76,68.0,58.0,49.0,40.0,10.0,1.0,,,-3.697870299999999,-40.3480952
556,556,SmartFit SP Market,"""Avenida das Nações Unidas, 22.540 - Setor 04 - Vila Almeida""",46.0,25,36,34,43,47,48,38,38,46,45,55,71.0,59.0,40.0,29.0,8.0,1.0,,,-23.6799089,-46.6964938
557,557,SmartFit Sudoeste I,"""CLSW 300A Bl B - Ed. Belas Artes - Sudoeste""",65.0,54,70,66,77,76,61,35,32,36,43,50,63.0,56.0,45.0,32.0,10.0,1.0,,,-15.7877769,-47.9157867
558,558,SmartFit Sudoeste II,"""CLSW 504 Bloco A - Subsolo - Sudoeste""",69.0,62,68,72,78,75,63,42,39,50,51,57,63.0,57.0,47.0,35.0,7.0,1.0,,,-15.7973517,-47.9182909
559,559,SmartFit Sumaré,"""Praça da República, 148 - Centro""",18.0,22,16,16,15,15,12,11,12,12,16,24,28.0,25.0,16.0,9.0,2.0,0.0,,,-22.821107,-47.266353
560,560,SmartFit Suzano,"""Rua Sete de Setembro, 555 - Cidade Cruzeiro do Sul""",46.0,43,55,45,44,45,51,38,38,41,40,47,55.0,54.0,43.0,29.0,7.0,1.0,,,-23.5419764,-46.3186731
561,561,SmartFit Tabo√£o Outlet,"""Av. Vida Nova, nº28 - Jardim Maria Rosa""",51.0,35,37,37,47,40,43,29,27,34,31,44,50.0,43.0,35.0,29.0,7.0,1.0,,,-23.6096807,-46.7695401
562,562,SmartFit Taguatinga Norte,"""Quadra QNA 56 - Taguatinga""",15.0,17,15,13,14,13,10,7,8,13,13,14,20.0,17.0,13.0,4.0,1.0,,,,-15.8165563,-48.0591456
563,563,SmartFit Taguatinga Sul,"""QSD Lote 04 - 2º andar Ed. Spazio Duo - Pistão Sul - Taguatinga Sul""",50.0,40,38,46,51,52,49,32,37,32,37,46,53.0,36.0,37.0,28.0,9.0,1.0,,,-15.8528522,-48.0399644
564,564,SmartFit Tamba√∫,"""Avenida Monsenhor Odilon Coutinho, 128 - Cabo Branco""",43.0,57,60,58,61,52,41,33,38,42,50,57,55.0,55.0,40.0,28.0,11.0,1.0,37.0,,-7.1246234,-34.8249385
565,565,SmartFit Taruma,"""Avenida Afonso Penna, 648 - Tarum√£""",50.0,35,44,46,50,54,44,38,37,41,37,44,52.0,40.0,38.0,22.0,5.0,1.0,,,-19.9394818,-43.9260482
566,566,SmartFit Tatuapé,"""Rua Emílio Mallet, 1472 - Vila Gomes Cardim""",45.0,42,45,38,38,42,39,27,24,29,32,38,43.0,41.0,30.0,22.0,7.0,0.0,,,-23.5457493,-46.5594098
567,567,SmartFit Taubaté,""" Avenida Itália, 850 - Jardim das nações""",59.0,45,55,55,61,56,47,31,36,44,39,49,59.0,52.0,38.0,26.0,7.0,1.0,,,-23.0299512,-45.5792025
568,568,SmartFit Teodoro Sampaio,"""Rua Teodoro Sampaio, 1885 - Pinheiros""",51.0,32,34,34,37,37,40,28,25,29,32,34,43.0,36.0,27.0,17.0,5.0,1.0,,,-23.5633842,-46.68671560000001
569,569,SmartFit Teotonio Vilela I,"""Av. Sen. Teotônio Vilela, 3065 - Grajaú""",46.0,37,46,42,38,38,36,30,30,31,32,34,46.0,46.0,33.0,20.0,6.0,1.0,,,-23.727561,-46.6986451
570,570,SmartFit Teotonio Vilela II,"""Avenida Senador Teotônio Vilela, 4484 - Cidade Dutra""",54.0,47,51,47,50,53,55,41,43,43,49,52,62.0,61.0,54.0,33.0,6.0,1.0,,,-23.7442476,-46.7071933
571,571,SmartFit Teresina Shopping,"""Av. Raul Lopes, 1000 - Noivos""",48.0,63,67,60,67,69,70,63,69,67,67,76,88.0,70.0,59.0,40.0,8.0,1.0,24.0,,-5.0864879,-42.7884845
572,572,SmartFit Tiete Plaza Shopping,"""Av. Raimundo Pereira de Magalh√£es, 1465 - Jardim Iris""",73.0,51,68,68,73,75,81,59,52,58,59,60,74.0,68.0,59.0,49.0,13.0,1.0,,,-23.5065578,-46.7185534
573,573,SmartFit Tindiba,"""Estrada do Tindiba, 1.763 - Taquara""",53.0,42,51,49,56,54,52,40,36,42,41,47,56.0,47.0,38.0,26.0,7.0,1.0,,,-22.9250266,-43.3705086
574,574,SmartFit Tirol,"""Avenida Prudente Morais, 777 - Tirol""",82.0,82,87,89,96,98,94,64,60,70,86,99,96.0,79.0,65.0,41.0,10.0,0.0,75.0,,-19.9437044,-43.9482615
575,575,SmartFit Tonelero,"""Rua Tonelero, 51 - Copacabana""",42.0,38,49,51,54,54,52,38,32,39,41,37,45.0,36.0,34.0,24.0,6.0,1.0,,,-22.9655529,-43.18271850000001
576,576,SmartFit Torre,"""Rua José Bonifácio, 1315 - Torre""",53.0,42,51,53,58,57,45,31,32,40,45,55,54.0,53.0,43.0,31.0,4.0,0.0,,,-21.0548524,-49.6784964
577,577,SmartFit Transguarulhense,"""Av. Benjamin Harris Hunnicutt - Portal dos Gramados""",67.0,56,70,65,71,69,68,52,46,53,53,58,66.0,67.0,58.0,35.0,9.0,1.0,,,-23.4330561,-46.537633
578,578,SmartFit Trio,"""Avenida Presidente Vargas, 1265 - Jardim S√£o Luiz""",61.0,50,51,46,50,59,56,31,27,37,42,57,73.0,49.0,38.0,20.0,6.0,1.0,,,-21.1997159,-47.8075288
579,579,SmartFit Uberaba,"""Av. Santos Dumont, 1000 - Santos Dumont""",70.0,48,57,54,62,63,48,43,44,54,54,58,74.0,57.0,44.0,27.0,7.0,0.0,,,19.0457809,-98.2492646
580,580,SmartFit Uberl√¢ndia,"""Av. Rondon Pacheco 920 - Vila Saraiva""",74.0,60,59,54,59,64,54,40,40,45,48,59,76.0,61.0,45.0,29.0,7.0,1.0,,,-18.9322307,-48.2841945
581,581,SmartFit Uberl√¢ndia Centro,"""Rua Cruzeiro dos Peixotos, 343 - Nossa Senhora Aparecida""",60.0,51,48,49,50,66,54,38,29,36,42,56,88.0,61.0,44.0,31.0,9.0,1.0,,,-18.9124242,-48.2730522
582,582,SmartFit Uni√£o Osasco,"""Avenida dos Autonomistas, 1400 - Vila Yara""",64.0,55,57,51,61,62,70,42,44,51,52,66,67.0,75.0,56.0,41.0,6.0,0.0,,,-23.548312,-46.7593241
583,583,SmartFit Uruguai,"""Rua Uruguai, 160 - Andaraí""",73.0,65,78,74,79,78,71,52,46,53,56,59,72.0,66.0,49.0,40.0,8.0,0.0,,,-22.925513,-43.2459354
584,584,SmartFit Uruguaiana,"""Praça Monte Castelo, 20 - Centro""",69.0,39,29,23,25,34,38,27,29,28,36,53,62.0,27.0,17.0,4.0,1.0,,,,-22.9040162,-43.180817
585,585,SmartFit Valo Velho,"""Rodovia Armando Salles, nº6033 - Recreio Campestre""",0.0,0,0,0,0,0,0,0,0,0,0,0,0.0,0.0,0.0,0.0,0.0,0.0,,,-23.6891338,-46.8106837
586,586,SmartFit Valparaíso de Goiás,"""Rua 31 - Parque Esplanada III""",55.0,65,64,56,61,51,40,34,35,42,50,60,67.0,67.0,53.0,35.0,5.0,0.0,,,-16.0694856,-47.9754811
587,587,SmartFit Varginha,"""Avenida Benjamin Constant, 150 - Centro""",85.0,71,75,78,84,79,59,60,55,71,75,77,95.0,71.0,48.0,13.0,1.0,,,,-21.5599324,-45.4425977
588,588,SmartFit V√°rzea Grande Shopping,"""Rua Presidente Arthur Bernardes - Jardim Aeroporto""",0.0,10,277,190,187,174,220,250,169,153,194,259,288.0,373.0,418.0,365.0,258.0,,,,-15.653018,-56.122281
589,589,SmartFit Venda Nova,"""Rua Lourdes Paula Cordeiro, 115 - Venda Nova""",49.0,50,51,46,46,45,33,29,32,35,37,42,54.0,48.0,37.0,25.0,4.0,1.0,,,-19.8149256,-43.9597902
590,590,SmartFit Via Light,"""Rua Arcelino Pereira Neves, 351 - Centro""",38.0,38,40,39,38,32,30,24,24,27,27,39,48.0,40.0,28.0,21.0,4.0,0.0,,,-22.7591471,-43.4438958
591,591,SmartFit Via Parque,"""Avenida Ayrton Senna, 3000 - Barra da Tijuca""",39.0,29,29,24,31,32,40,26,20,24,27,34,50.0,33.0,26.0,6.0,1.0,,,,-22.9827365,-43.360893
592,592,SmartFit Vicente Linhares,"""Rua Tib√∫rcio Cavalcante, 1885 - Meireles""",63.0,54,56,51,56,60,55,31,34,44,48,59,65.0,50.0,34.0,23.0,5.0,0.0,,,-3.7433957,-38.49634
593,593,SmartFit Vila Carmosina,"""R. Tomé Álvares de Castro, 80 - Vila Carmosina""",51.0,46,54,53,50,56,57,39,39,42,37,46,55.0,54.0,43.0,32.0,6.0,1.0,,,-23.5572798,-46.4464774
594,594,SmartFit Vila Carr√£o,""" Av. Guilherme Giorgi, 1678 - Jardim Textil""",73.0,73,67,65,76,69,71,46,44,59,51,61,74.0,74.0,53.0,37.0,6.0,1.0,,,-23.5605888,-46.5436999
595,595,SmartFit Vila das Mercês,"""Rua Nossa Senhora das Mercês, 919, Complemento 915 e 925 - Vila das Mercês""",52.0,39,51,42,46,47,48,39,37,39,37,43,56.0,57.0,46.0,28.0,6.0,1.0,,,-23.6255651,-46.60671079999999
596,596,SmartFit Vila Dirce,"""Avenida Inocêncio Seráfico, 3445 - Vila Silva Ribeiro""",40.0,36,39,37,43,37,35,31,30,37,34,38,48.0,48.0,41.0,28.0,5.0,0.0,,,-23.5525312,-46.8351213
597,597,SmartFit Vila Ema,"""Avenida Vila Ema, 3680 - Vila Ema""",53.0,41,47,42,48,48,55,39,37,39,38,45,59.0,49.0,42.0,30.0,7.0,1.0,,,-23.5881916,-46.5436989
598,598,SmartFit Vila Formosa,"""Avenida Vereador Abel Ferreira, 2816 - Vila Regente Feijó""",46.0,42,48,37,44,46,45,30,29,32,38,43,53.0,50.0,41.0,26.0,6.0,0.0,,,-23.5695546,-46.5532735
599,599,SmartFit Vila Galv√£o,"""Avenida Emílio Ribas, 2680 - Jardim Vila Galvão""",55.0,44,46,45,50,51,43,33,34,42,40,49,59.0,54.0,47.0,33.0,7.0,1.0,,,-23.4613847,-46.5579089
600,600,SmartFit Vila Isabel,""" Rua 28 de Setembro, 356 - Vila Isabel""",65.0,48,65,65,71,68,60,53,44,51,50,57,68.0,63.0,53.0,38.0,12.0,1.0,,,-22.9159561,-43.2480515
601,601,SmartFit Vila Maria,"""Rua Dom luis Felipe de Orleans 807 - Vila Maria Baixa""",72.0,58,58,53,54,52,53,50,51,52,56,68,76.0,68.0,50.0,32.0,11.0,1.0,,,-23.5176716,-46.5883292
602,602,SmartFit Vila Mariana,"""Rua Domingos de Morais, 908 - Vila Mariana""",86.0,56,68,61,69,72,80,54,48,52,62,74,78.0,65.0,51.0,37.0,7.0,0.0,,,-23.5846083,-46.6373514
603,603,SmartFit Vila Nova Cachoeirinha,"""Av. Parada Pinto, 1370 - Vila Nova Cachoeirinha""",69.0,65,70,61,70,62,66,54,49,60,52,67,84.0,75.0,58.0,40.0,7.0,0.0,,,-23.4694278,-46.6570521
604,604,SmartFit Vila Peri ,"""Rua Waldir Diogo, 1138 - Manuel S√°tiro""",60.0,60,61,60,71,70,61,51,55,56,53,68,77.0,82.0,65.0,42.0,6.0,0.0,,,-3.8009513,-38.586656
605,605,SmartFit Vila  Prudente,"""Avenida Professor Luiz Ign√°cio Anhaia Mello, 1160 - Quinta da Paineira""",74.0,48,49,46,55,53,61,44,40,40,46,65,70.0,60.0,48.0,33.0,7.0,1.0,,,-23.5853796,-46.5822785
606,606,SmartFit Vila Valqueire,"""Praça Saiqui, 149 - Vila Valqueire""",86.0,77,109,94,93,91,78,58,62,70,70,81,95.0,81.0,65.0,46.0,10.0,1.0,,,-22.8833215,-43.36844850000001
607,607,SmartFit Vilar dos Teles,"""Av. Automóvel Clube, 2487 - Vilar dos Teles""",53.0,51,67,61,62,54,48,45,40,46,49,53,64.0,52.0,40.0,23.0,4.0,1.0,,,-22.7766776,-43.3614067
608,608,SmartFit Villa Branca ,"""Avenida das Letras, 659 - Villa Branca""",64.0,58,64,50,56,51,42,35,33,42,42,52,73.0,65.0,48.0,33.0,6.0,1.0,,,-23.267524,-45.9407536
609,609,SmartFit Village,"""Avenida Antônio da Rocha Viana - Jardim Manoel Julião""",38.0,83,66,88,79,108,99,88,85,89,100,102,103.0,118.0,,,,,1.0,0.0,-9.9574206,-67.8223054
610,610,SmartFit Ville Roy,"""Avenida Ville Roy, 1544 (Dentro do Roraima Garden Shopping) - Caçari""",23.0,82,66,55,84,93,98,95,71,86,88,105,97.0,111.0,106.0,76.0,61.0,16.0,,,2.8548148,-60.644659
611,611,SmartFit Visconde de Piraj√°,"""Rua Visconde de Piraj√°, 161, Sobreloja - Ipanema""",61.0,57,62,58,74,73,68,47,39,46,48,47,58.0,46.0,38.0,27.0,10.0,0.0,,,-22.9842394,-43.2049773
612,612,SmartFit Vitória da Conquista,"""Avenida Olívia Flores, 1265 - Candeias""",78.0,48,61,67,73,72,63,50,55,61,57,71,73.0,56.0,50.0,12.0,1.0,,,,-14.8666271,-40.8221035
613,613,SmartFit Volta Redonda,"""Av. Amaral Peixoto, 555 - Centro""",62.0,56,56,53,56,53,46,35,42,47,42,45,55.0,45.0,39.0,9.0,1.0,,,,-22.5124491,-44.0901612
614,614,SmartFit Volunt√°rios da P√°tria I,"""Rua Volunt√°rios da P√°tria, 232 - Botafogo""",77.0,60,73,70,76,76,68,47,45,50,54,57,60.0,57.0,44.0,30.0,8.0,0.0,,,-22.9530721,-43.1897296
615,615,SmartFit Volunt√°rios da P√°tria II,"""Rua Volunt√°rios da P√°tria, 404 - Botafogo""",65.0,79,79,70,78,76,73,50,46,55,66,69,74.0,64.0,44.0,32.0,7.0,0.0,,,-22.9551878,-43.1954855
616,616,SmartFit Washington Luís,"""Avenida Washington Luís, 1415 - Santo Amaro""",52.0,40,48,44,47,45,44,28,27,36,41,44,53.0,44.0,38.0,23.0,6.0,1.0,,,-23.6548246,-46.6932759
617,617,SmartFit Washington Soares,"""Av. Washington Soares, 1550 - Edson Queiroz""",60.0,53,54,55,58,71,63,37,37,44,53,73,78.0,55.0,46.0,26.0,5.0,0.0,,,-3.7730575,-38.4831854
